address_name,category_group_code,category_group_name,category_name,distance,id,phone,place_name,place_url,road_address_name,x,y
서울 종로구 종로2가 84-14,CE7,카페,음식점 > 카페 > 커피전문점 > 스타벅스,,8405079,1522-3232,스타벅스 종각점,http://place.map.kakao.com/8405079,서울 종로구 종로 64,126.984569205394,37.5700056389639
서울 종로구 종로1가 17,CE7,카페,음식점 > 카페 > 커피전문점 > 스타벅스,,27030449,1522-3232,스타벅스 광화문D타워점,http://place.map.kakao.com/27030449,서울 종로구 종로3길 17,126.97906325312978,37.570466100534176
서울 종로구 관수동 3-5,CE7,카페,음식점 > 카페 > 커피전문점 > 스타벅스,,18691076,1522-3232,스타벅스 종로관수점,http://place.map.kakao.com/18691076,서울 종로구 삼일대로20길 13,126.988675971996,37.5697538255943
서울 종로구 관철동 12-15,CE7,카페,음식점 > 카페 > 커피전문점 > 스타벅스,,12700362,1522-3232,스타벅스 종로관철점,http://place.map.kakao.com/12700362,서울 종로구 종로12길 21,126.986000167007,37.5690868019367
서울 종로구 중학동 14,CE7,카페,음식점 > 카페 > 커피전문점 > 스타벅스,,14870809,1522-3232,스타벅스 경복궁사거리점,http://place.map.kakao.com/14870809,서울 종로구 율곡로 6,126.98026291268783,37.57558485945881
서울 종로구 신문로1가 163,CE7,카페,음식점 > 카페 > 커피전문점 > 스타벅스,,25115115,1522-3232,스타벅스 새문안로점,http://place.map.kakao.com/25115115,서울 종로구 새문안로 92,126.97517406163408,37.56978599622706
서울 종로구 청진동 19,CE7,카페,음식점 > 카페 > 커피전문점 > 스타벅스,,26330427,1522-3232,스타벅스 종로수송점,http://place.map.kakao.com/26330427,서울 종로구 종로5길 30,126.98070202541096,37.57165569350996
서울 종로구 수송동 156,CE7,카페,음식점 > 카페 > 커피전문점 > 스타벅스,,27597194,1522-3232,스타벅스 종로구청점,http://place.map.kakao.com/27597194,서울 종로구 삼봉로 71,126.9809655499042,37.57254591943661
서울 종로구 수송동 146-1,CE7,카페,음식점 > 카페 > 커피전문점 > 스타벅스,,13582632,1522-3232,스타벅스 이마빌딩점,http://place.map.kakao.com/13582632,서울 종로구 종로1길 42,126.9789615295702,37.573946626388214
서울 종로구 종로1가 89-3,CE7,카페,음식점 > 카페 > 커피전문점 > 스타벅스,,312821024,1522-3232,스타벅스 광화문우체국점,http://place.map.kakao.com/312821024,서울 종로구 종로 6,126.978058216854,37.5699721725557
서울 종로구 종로1가 1,CE7,카페,음식점 > 카페 > 커피전문점 > 스타벅스,,99236336,1522-3232,스타벅스 광화문교보문고점,http://place.map.kakao.com/99236336,서울 종로구 종로 1,126.97791642688188,37.57097405292378
서울 종로구 신문로2가 89-27,CE7,카페,음식점 > 카페 > 커피전문점 > 스타벅스,,914760655,,스타벅스 정동점,http://place.map.kakao.com/914760655,서울 종로구 새문안로 42,126.970059273095,37.5685477430101
서울 종로구 수송동 110,CE7,카페,음식점 > 카페 > 커피전문점 > 스타벅스,,476551453,1522-3232,스타벅스 연합뉴스점,http://place.map.kakao.com/476551453,서울 종로구 율곡로2길 25,126.98050440160851,37.57418565488308
서울 종로구 평동 60,CE7,카페,음식점 > 카페 > 커피전문점 > 스타벅스,,471287510,1522-3232,스타벅스 강북삼성병원1층점,http://place.map.kakao.com/471287510,서울 종로구 새문안로 29,126.96786560552465,37.56851022547468
서울 종로구 평동 73,CE7,카페,음식점 > 카페 > 커피전문점 > 스타벅스,,1296092080,1522-3232,스타벅스 강북삼성병원점,http://place.map.kakao.com/1296092080,서울 종로구 새문안로 29,126.966956766014,37.5682811217099
서울 중구 소공동 87-1,CE7,카페,음식점 > 카페 > 커피전문점 > 스타벅스,,22894118,1522-3232,스타벅스 환구단점,http://place.map.kakao.com/22894118,서울 중구 소공로 112,126.97912831504493,37.564473589052284
서울 중구 명동2가 2-16,CE7,카페,음식점 > 카페 > 커피전문점 > 스타벅스,,26785711,1522-3232,스타벅스 명동중앙로점,http://place.map.kakao.com/26785711,서울 중구 명동길 60,126.985761219289,37.5637096294539
서울 중구 태평로1가 25,CE7,카페,음식점 > 카페 > 커피전문점 > 스타벅스,,27557389,1522-3232,스타벅스 한국프레스센터점,http://place.map.kakao.com/27557389,서울 중구 세종대로 124,126.97788238985001,37.567409708254644
서울 중구 명동2가 85-6,CE7,카페,음식점 > 카페 > 커피전문점 > 스타벅스,,17884779,1522-3232,스타벅스 명동입구점,http://place.map.kakao.com/17884779,서울 중구 남대문로 68-1,126.982261612732,37.5632874892086
서울 중구 저동2가 24-1,CE7,카페,음식점 > 카페 > 커피전문점 > 스타벅스,,26572254,1522-3232,스타벅스 중구저동점,http://place.map.kakao.com/26572254,서울 중구 수표로 34,126.9901708289,37.5645570154504
서울 중구 서소문동 136,CE7,카페,음식점 > 카페 > 커피전문점 > 스타벅스,,26410045,1522-3232,스타벅스 서소문로점,http://place.map.kakao.com/26410045,서울 중구 서소문로 120,126.9744745874965,37.56294278280919
서울 중구 무교동 45,CE7,카페,음식점 > 카페 > 커피전문점 > 스타벅스,,8403570,1522-3232,스타벅스 무교동점,http://place.map.kakao.com/8403570,서울 중구 무교로 21,126.978896422532,37.5679865311548
서울 중구 태평로2가 69-7,CE7,카페,음식점 > 카페 > 커피전문점 > 스타벅스,,8438581,1522-3232,스타벅스 태평로점,http://place.map.kakao.com/8438581,서울 중구 세종대로 72,126.976711254608,37.5625008559003
서울 중구 을지로2가 198,CE7,카페,음식점 > 카페 > 커피전문점 > 스타벅스,,27090421,1522-3232,스타벅스 을지로한국빌딩점,http://place.map.kakao.com/27090421,서울 중구 을지로 50,126.983451795824,37.5656626881538
서울 중구 을지로2가 205,CE7,카페,음식점 > 카페 > 커피전문점 > 스타벅스,,205260182,1522-3232,스타벅스 을지로2가점,http://place.map.kakao.com/205260182,서울 중구 삼일대로 358,126.988001872047,37.5663732231061
서울 중구 필동2가 19-1,CE7,카페,음식점 > 카페 > 커피전문점 > 스타벅스,,7961652,1522-3232,스타벅스 대한극장점,http://place.map.kakao.com/7961652,서울 중구 퇴계로 212,126.9953357752192,37.561073178942735
서울 중구 남대문로4가 17-19,CE7,카페,음식점 > 카페 > 커피전문점 > 스타벅스,,724341363,1522-3232,스타벅스 숭례문북창점,http://place.map.kakao.com/724341363,서울 중구 세종대로12길 12,126.97670696736371,37.56172960195989
서울 중구 수표동 100,CE7,카페,음식점 > 카페 > 커피전문점 > 스타벅스,,2056391005,1522-3232,스타벅스 청계크리스탈스퀘어점,http://place.map.kakao.com/2056391005,서울 중구 청계천로 106,126.9894142929761,37.56770773307714
서울 중구 소공동 70,CE7,카페,음식점 > 카페 > 커피전문점 > 스타벅스,,27389694,1522-3232,스타벅스 소공로점,http://place.map.kakao.com/27389694,서울 중구 남대문로7길 19,126.980790051363,37.5638855205458
서울 중구 을지로1가 50,CE7,카페,음식점 > 카페 > 커피전문점 > 스타벅스,,1146325598,1522-3232,스타벅스 시청점,http://place.map.kakao.com/1146325598,서울 중구 을지로 19,126.97981258973314,37.566351383923966
서울 중구 회현동1가 206,CE7,카페,음식점 > 카페 > 커피전문점 > 스타벅스,,27233253,1522-3232,스타벅스 회현역점,http://place.map.kakao.com/27233253,서울 중구 퇴계로 72,126.98071426186301,37.559319256962745
서울 중구 무교동 32-2,CE7,카페,음식점 > 카페 > 커피전문점 > 스타벅스,,321010429,1522-3232,스타벅스 무교로점,http://place.map.kakao.com/321010429,서울 중구 무교로 15,126.978923787718,37.5672801553634
서울 중구 을지로2가 199-33,CE7,카페,음식점 > 카페 > 커피전문점 > 스타벅스,,24765610,1522-3232,스타벅스 명동메트로점,http://place.map.kakao.com/24765610,서울 중구 명동9가길 14,126.983700935265,37.5650932932662
서울 중구 을지로2가 204,CE7,카페,음식점 > 카페 > 커피전문점 > 스타벅스,,17884783,1522-3232,스타벅스 을지로삼화타워점,http://place.map.kakao.com/17884783,서울 중구 을지로5길 16,126.98468756013723,37.56692064528361
서울 중구 남대문로5가 120,CE7,카페,음식점 > 카페 > 커피전문점 > 스타벅스,,12108441,1522-3232,스타벅스 남산단암점,http://place.map.kakao.com/12108441,서울 중구 소월로 10,126.975367977524,37.5584028495816
서울 중구 다동 111,CE7,카페,음식점 > 카페 > 커피전문점 > 스타벅스,,261003114,1522-3232,스타벅스 을지로국제빌딩점,http://place.map.kakao.com/261003114,서울 중구 남대문로 109,126.98234221842628,37.5670482592095
서울 중구 태평로1가 62-12,CE7,카페,음식점 > 카페 > 커피전문점 > 스타벅스,,660525167,1522-3232,스타벅스 세종대로점,http://place.map.kakao.com/660525167,서울 중구 세종대로 135-5,126.97643316578,37.5685951382056
서울 중구 충정로1가 68,CE7,카페,음식점 > 카페 > 커피전문점 > 스타벅스,,10537603,,스타벅스 문화일보점,http://place.map.kakao.com/10537603,서울 중구 새문안로 22,126.96861433364,37.5672670528218
서울 용산구 동자동 45,CE7,카페,음식점 > 카페 > 커피전문점 > 스타벅스,,23773454,1522-3232,스타벅스 서울역동자동점,http://place.map.kakao.com/23773454,서울 용산구 한강대로 372,126.97281937843152,37.55171508560799
서울 중구 봉래동2가 122-11,CE7,카페,음식점 > 카페 > 커피전문점 > 스타벅스,,67078466,1522-3232,스타벅스 서울역사점,http://place.map.kakao.com/67078466,서울 중구 한강대로 405,126.97170262546341,37.55414661686299
서울 용산구 동빙고동 10-8,CE7,카페,음식점 > 카페 > 커피전문점 > 스타벅스,,7977694,1522-3232,스타벅스 동빙고점,http://place.map.kakao.com/7977694,서울 용산구 장문로 12,126.991809144209,37.5289857011391
서울 용산구 이태원동 127-6,CE7,카페,음식점 > 카페 > 커피전문점 > 스타벅스,,105554166,1522-3232,스타벅스 이태원역점,http://place.map.kakao.com/105554166,서울 용산구 이태원로 188,126.99482944044337,37.534268442542476
서울 용산구 한남동 657-104,CE7,카페,음식점 > 카페 > 커피전문점 > 스타벅스,,19700493,1522-3232,스타벅스 순천향입구점,http://place.map.kakao.com/19700493,서울 용산구 대사관로 67,127.005702258097,37.5334043581552
서울 용산구 갈월동 90-8,CE7,카페,음식점 > 카페 > 커피전문점 > 스타벅스,,1706991930,1522-3232,스타벅스 남영동,http://place.map.kakao.com/1706991930,서울 용산구 한강대로 275,126.972290762187,37.5428761638741
서울 용산구 갈월동 69-5,CE7,카페,음식점 > 카페 > 커피전문점 > 스타벅스,,13018524,1522-3232,스타벅스 숙대입구역점,http://place.map.kakao.com/13018524,서울 용산구 한강대로 291,126.971946258475,37.5442492056723
서울 용산구 청파동3가 111-35,CE7,카페,음식점 > 카페 > 커피전문점 > 스타벅스,,7961824,1522-3232,스타벅스 숙대점,http://place.map.kakao.com/7961824,서울 용산구 청파로47길 57,126.967234220432,37.5447165118322
서울 용산구 용산동2가 산 1-3,CE7,카페,음식점 > 카페 > 커피전문점 > 스타벅스,,27473971,1522-3232,스타벅스 서울타워점,http://place.map.kakao.com/27473971,서울 용산구 남산공원길 105,126.98829848689,37.5515320285774
서울 용산구 이태원동 658,CE7,카페,음식점 > 카페 > 커피전문점 > 스타벅스,,806601189,1522-3232,스타벅스 경리단길점,http://place.map.kakao.com/806601189,서울 용산구 회나무로 3,126.98742474868594,37.538568361831715
서울 용산구 서계동 219-17,CE7,카페,음식점 > 카페 > 커피전문점 > 스타벅스,,432587195,1522-3232,스타벅스 서울역서부점,http://place.map.kakao.com/432587195,서울 용산구 만리재로 202,126.96846445791682,37.55493957542293
서울 용산구 효창동 287,CE7,카페,음식점 > 카페 > 커피전문점 > 스타벅스,,1353843503,1522-3232,스타벅스 효창공원앞역점,http://place.map.kakao.com/1353843503,서울 용산구 백범로 313,126.96339647660712,37.538970610627175
서울 용산구 원효로1가 133-3,CE7,카페,음식점 > 카페 > 커피전문점 > 스타벅스,,1388743752,1522-3232,스타벅스 용산리첸시아점,http://place.map.kakao.com/1388743752,서울 용산구 백범로 341,126.96727323642139,37.53829780050673
서울 용산구 청파동3가 115,CE7,카페,음식점 > 카페 > 커피전문점 > 스타벅스,,629289362,1522-3232,스타벅스 숙명여대정문점,http://place.map.kakao.com/629289362,서울 용산구 청파로47길 99,126.964939368829,37.5447699127161
서울 용산구 동자동 56,CE7,카페,음식점 > 카페 > 커피전문점 > 스타벅스,,93769716,1522-3232,스타벅스 포포인츠서울역점,http://place.map.kakao.com/93769716,서울 용산구 한강대로 366,126.972912403552,37.5510862102149
서울 중구 남대문로5가 526,CE7,카페,음식점 > 카페 > 커피전문점 > 스타벅스,,275033847,1522-3232,스타벅스 대우재단빌딩점,http://place.map.kakao.com/275033847,서울 중구 퇴계로 18,126.97527239418547,37.55653326017453
서울 중구 회현동2가 88,CE7,카페,음식점 > 카페 > 커피전문점 > 스타벅스,,589092573,1522-3232,스타벅스 별다방점,http://place.map.kakao.com/589092573,서울 중구 퇴계로 100,126.982729816384,37.5600439705648
서울 중구 남대문로5가 84-11,CE7,카페,음식점 > 카페 > 커피전문점 > 스타벅스,,2129835684,,스타벅스 연세세브란스점,http://place.map.kakao.com/2129835684,서울 중구 통일로 10,126.973539447106,37.5572059295871
서울 중구 충무로1가 25-52,CE7,카페,음식점 > 카페 > 커피전문점 > 스타벅스,,19700434,1522-3232,스타벅스 명동역점,http://place.map.kakao.com/19700434,서울 중구 퇴계로 101,126.98310425846024,37.56086212989949
서울 중구 충무로2가 7-1,CE7,카페,음식점 > 카페 > 커피전문점 > 스타벅스,,26395444,,스타벅스 명동길점,http://place.map.kakao.com/26395444,서울 중구 명동10길 41,126.985906399301,37.5621058731093
서울 성동구 옥수동 262-1,CE7,카페,음식점 > 카페 > 커피전문점 > 스타벅스,,616571926,,스타벅스 옥수점,http://place.map.kakao.com/616571926,서울 성동구 독서당로 202,127.013352235341,37.5429975919575
서울 중구 충무로5가 90,CE7,카페,음식점 > 카페 > 커피전문점 > 스타벅스,,1649896571,,스타벅스 동국대점,http://place.map.kakao.com/1649896571,서울 중구 서애로1길 11,126.99857163723824,37.56147060200148
서울 광진구 군자동 236,CE7,카페,음식점 > 카페 > 커피전문점 > 스타벅스,,630372352,1522-3232,스타벅스 어린이대공원역,http://place.map.kakao.com/630372352,서울 광진구 능동로 243,127.076380487066,37.5519178583054
서울 광진구 화양동 5-45,CE7,카페,음식점 > 카페 > 커피전문점 > 스타벅스,,1317526944,1522-3232,스타벅스 건국대점,http://place.map.kakao.com/1317526944,서울 광진구 능동로 117,127.071093658871,37.5415948126772
서울 광진구 자양동 855,CE7,카페,음식점 > 카페 > 커피전문점 > 스타벅스,,812612626,1522-3232,스타벅스 뚝섬유원지역점,http://place.map.kakao.com/812612626,서울 광진구 능동로 18,127.0678788432194,37.532684910590675
서울 광진구 자양동 227-342,CE7,카페,음식점 > 카페 > 커피전문점 > 스타벅스,,17884752,1522-3232,스타벅스 건국클래식점,http://place.map.kakao.com/17884752,서울 광진구 능동로 90,127.0710453202779,37.53835124237276
서울 광진구 화양동 5-47,CE7,카페,음식점 > 카페 > 커피전문점 > 스타벅스,,11435932,1522-3232,스타벅스 건대입구점,http://place.map.kakao.com/11435932,서울 광진구 능동로 107,127.07070575899195,37.540621965939025
서울 광진구 화양동 111-85,CE7,카페,음식점 > 카페 > 커피전문점 > 스타벅스,,871397238,,스타벅스 건대후문점,http://place.map.kakao.com/871397238,,127.073805710657,37.5459720050484
서울 광진구 중곡동 649-4,CE7,카페,음식점 > 카페 > 커피전문점 > 스타벅스,,51471169,1522-3232,스타벅스 군자사거리점,http://place.map.kakao.com/51471169,서울 광진구 천호대로 549,127.07922032699476,37.557693183234925
서울 광진구 자양동 227-7,CE7,카페,음식점 > 카페 > 커피전문점 > 스타벅스,,233419776,1522-3232,스타벅스 자양이마트,http://place.map.kakao.com/233419776,서울 광진구 아차산로 272,127.073388570764,37.5383164723872
서울 성동구 성수동2가 281-18,CE7,카페,음식점 > 카페 > 커피전문점 > 스타벅스,,207804518,1522-3232,스타벅스 성수낙낙,http://place.map.kakao.com/207804518,서울 성동구 광나루로8길 31,127.066325846874,37.5471891877582
서울 성동구 성수동2가 317-20,CE7,카페,음식점 > 카페 > 커피전문점 > 스타벅스,,1748005319,1522-3232,스타벅스 성수역점,http://place.map.kakao.com/1748005319,서울 성동구 성수이로 94,127.056944035907,37.5431936487842
서울 강남구 청담동 132-1,CE7,카페,음식점 > 카페 > 커피전문점 > 스타벅스,,1062647229,1522-3232,스타벅스 청담영동대로점,http://place.map.kakao.com/1062647229,서울 강남구 영동대로 720,127.056457403591,37.5220924385651
서울 강남구 삼성동 91-34,CE7,카페,음식점 > 카페 > 커피전문점 > 스타벅스,,17884741,,스타벅스 코엑스사거리점,http://place.map.kakao.com/17884741,서울 강남구 영동대로 616,127.0602165265151,37.5151132134315
서울 강남구 삼성동 108-6,CE7,카페,음식점 > 카페 > 커피전문점 > 스타벅스,,1759724595,1522-3232,스타벅스 봉은사역점,http://place.map.kakao.com/1759724595,서울 강남구 봉은사로 619,127.063116657513,37.5150288069818
서울 강남구 삼성동 168-22,CE7,카페,음식점 > 카페 > 커피전문점 > 스타벅스,,1705256411,1522-3232,스타벅스 삼성동점,http://place.map.kakao.com/1705256411,서울 강남구 영동대로96길 12,127.063583565949,37.5107397774703
서울 강남구 대치동 996-1,CE7,카페,음식점 > 카페 > 커피전문점 > 스타벅스,,48890693,1522-3232,스타벅스 삼성역점,http://place.map.kakao.com/48890693,서울 강남구 테헤란로 620,127.0655774019,37.5091961677633
서울 성동구 도선동 58-5,CE7,카페,음식점 > 카페 > 커피전문점 > 스타벅스,,26785715,1522-3232,스타벅스 왕십리역,http://place.map.kakao.com/26785715,서울 성동구 왕십리로 326,127.0338149211964,37.56263706380071
서울 성동구 행당동 168-151,CE7,카페,음식점 > 카페 > 커피전문점 > 스타벅스,,7962122,1522-3232,스타벅스 엔터식스,http://place.map.kakao.com/7962122,서울 성동구 왕십리광장로 17,127.03808593098857,37.56153114148344
서울 성동구 행당동 267-23,CE7,카페,음식점 > 카페 > 커피전문점 > 스타벅스,,2129946945,1522-3232,스타벅스 왕십리역9번출구점,http://place.map.kakao.com/2129946945,서울 성동구 고산자로 234,127.035267218622,37.5605409206813
서울 성동구 행당동 31-4,CE7,카페,음식점 > 카페 > 커피전문점 > 스타벅스,,7962110,1522-3232,스타벅스 한양대점,http://place.map.kakao.com/7962110,서울 성동구 왕십리로 225,127.042137691677,37.5572013754304
서울 성동구 금호동1가 122,CE7,카페,음식점 > 카페 > 커피전문점 > 스타벅스,,719679688,1522-3232,스타벅스 신금호역점,http://place.map.kakao.com/719679688,서울 성동구 금호로 158-1,127.020144728561,37.5549672962231
서울 성동구 성수동1가 14-33,CE7,카페,음식점 > 카페 > 커피전문점 > 스타벅스,,245683601,1522-3232,스타벅스 뚝섬역,http://place.map.kakao.com/245683601,서울 성동구 아차산로 42,127.04904909957543,37.54645790805712
서울 중구 신당동 374-27,CE7,카페,음식점 > 카페 > 커피전문점 > 스타벅스,,26459305,,스타벅스 약수역점,http://place.map.kakao.com/26459305,서울 중구 다산로 129,127.01072883216,37.5554316400573
서울 중구 장충동1가 62-35,CE7,카페,음식점 > 카페 > 커피전문점 > 스타벅스,,686468757,1522-3232,스타벅스 동대입구역점,http://place.map.kakao.com/686468757,서울 중구 장충단로 166,127.006143390094,37.5595909713475
서울 성동구 성수동1가 656-335,CE7,카페,음식점 > 카페 > 커피전문점 > 스타벅스,,705457660,1522-3232,스타벅스 서울숲역,http://place.map.kakao.com/705457660,서울 성동구 왕십리로 50,127.04471805162031,37.54195913619448
서울 성동구 성수동2가 315-71,CE7,카페,음식점 > 카페 > 커피전문점 > 스타벅스,,771811963,1522-3232,스타벅스 성수점,http://place.map.kakao.com/771811963,서울 성동구 아차산로 104,127.055455842674,37.5444413401037
서울 중랑구 면목동 617-2,CE7,카페,음식점 > 카페 > 커피전문점 > 스타벅스,,26303961,1522-3232,스타벅스 사가정역점,http://place.map.kakao.com/26303961,서울 중랑구 면목로 310,127.08797554327867,37.57971361735439
서울 중랑구 상봉동 501,CE7,카페,음식점 > 카페 > 커피전문점 > 스타벅스,,27598483,1522-3232,스타벅스 상봉점,http://place.map.kakao.com/27598483,서울 중랑구 상봉로 131,127.0921036364519,37.59754110563667
서울 중랑구 상봉동 130-3,CE7,카페,음식점 > 카페 > 커피전문점 > 스타벅스,,26925099,,스타벅스 중랑역점,http://place.map.kakao.com/26925099,서울 중랑구 망우로30길 3,127.074600852668,37.5932719555205
서울 중랑구 망우동 618,CE7,카페,음식점 > 카페 > 커피전문점 > 스타벅스,,1179180669,1522-3232,스타벅스 양원역점,http://place.map.kakao.com/1179180669,서울 중랑구 양원역로10길 3,127.10635956329574,37.60665344673527
서울 광진구 중곡동 30-80,CE7,카페,음식점 > 카페 > 커피전문점 > 스타벅스,,803455764,1522-3232,스타벅스 중곡역,http://place.map.kakao.com/803455764,서울 광진구 능동로 400,127.084457404725,37.5650579024674
서울 동대문구 장안동 433-7,CE7,카페,음식점 > 카페 > 커피전문점 > 스타벅스,,17884754,1522-3232,스타벅스 장한평역점,http://place.map.kakao.com/17884754,서울 동대문구 장한로 10,127.065415653019,37.5622904152963
서울 동대문구 답십리동 497-67,CE7,카페,음식점 > 카페 > 커피전문점 > 스타벅스,,1387251423,1522-3232,스타벅스 답십리역점,http://place.map.kakao.com/1387251423,서울 동대문구 천호대로 263,127.051104396527,37.5684638941316
서울 광진구 군자동 478-5,CE7,카페,음식점 > 카페 > 커피전문점 > 스타벅스,,24350794,1522-3232,스타벅스 군자역점,http://place.map.kakao.com/24350794,서울 광진구 천호대로 548,127.078883513241,37.5570491957957
서울 종로구 동숭동 30,CE7,카페,음식점 > 카페 > 커피전문점 > 스타벅스,,17127114,1522-3232,스타벅스 동숭로아트점,http://place.map.kakao.com/17127114,서울 종로구 동숭길 110,127.00390365241,37.5829484668296
서울 종로구 동숭동 1-31,CE7,카페,음식점 > 카페 > 커피전문점 > 스타벅스,,1033782082,1522-3232,스타벅스 혜화역점,http://place.map.kakao.com/1033782082,서울 종로구 대학로12길 4,127.002196357852,37.582516034077
서울 종로구 혜화동 90-18,CE7,카페,음식점 > 카페 > 커피전문점 > 스타벅스,,91432713,1522-3232,스타벅스 동숭길입구점,http://place.map.kakao.com/91432713,서울 종로구 대학로 146,127.00187939935758,37.58417116438237
서울 종로구 동숭동 1-115,CE7,카페,음식점 > 카페 > 커피전문점 > 스타벅스,,12108451,1522-3232,스타벅스 마로니에공원점,http://place.map.kakao.com/12108451,서울 종로구 대학로 116,127.00233671288821,37.58153304738773
서울 동대문구 신설동 76-10,CE7,카페,음식점 > 카페 > 커피전문점 > 스타벅스,,26900379,1522-3232,스타벅스 신설동역점,http://place.map.kakao.com/26900379,서울 동대문구 왕산로 19,127.025566307699,37.5766243895454
서울 종로구 명륜3가 154-3,CE7,카페,음식점 > 카페 > 커피전문점 > 스타벅스,,7961756,1522-3232,스타벅스 성대입구점,http://place.map.kakao.com/7961756,서울 종로구 창경궁로 235,126.99840932939792,37.58295662959956
서울 종로구 숭인동 310,CE7,카페,음식점 > 카페 > 커피전문점 > 스타벅스,,1442885240,1522-3232,스타벅스 동묘앞역점,http://place.map.kakao.com/1442885240,서울 종로구 종로 344,127.01592714965132,37.57263197407505
서울 동대문구 제기동 1019,CE7,카페,음식점 > 카페 > 커피전문점 > 스타벅스,,609996995,1522-3232,스타벅스 경동1960점,http://place.map.kakao.com/609996995,서울 동대문구 고산자로36길 3,127.0386612781175,37.57978511855371
서울 종로구 연건동 128-8,CE7,카페,음식점 > 카페 > 커피전문점 > 스타벅스,,20046345,1522-3232,스타벅스 대학로점,http://place.map.kakao.com/20046345,서울 종로구 대학로 57,127.001181864608,37.5766379640419
서울 중구 황학동 2545,CE7,카페,음식점 > 카페 > 커피전문점 > 스타벅스,,7962281,,스타벅스 황학캐슬점,http://place.map.kakao.com/7962281,서울 중구 청계천로 400,127.02279679999133,37.57125863184524
서울 종로구 연건동 275-1,CE7,카페,음식점 > 카페 > 커피전문점 > 스타벅스,,206798750,1522-3232,스타벅스 서울대치과병원점,http://place.map.kakao.com/206798750,서울 종로구 대학로 101,126.999592454366,37.5777597071796
서울 중구 을지로6가 18-12,CE7,카페,음식점 > 카페 > 커피전문점 > 스타벅스,,1928551036,1522-3232,스타벅스 동대문두타점,http://place.map.kakao.com/1928551036,서울 중구 장충단로 275,127.008774774696,37.5688854829136
서울 성동구 하왕십리동 1070,CE7,카페,음식점 > 카페 > 커피전문점 > 스타벅스,,646280960,1522-3232,스타벅스 황학사거리점,http://place.map.kakao.com/646280960,서울 성동구 왕십리로 410,127.02382119821665,37.56758777397315
서울 종로구 인의동 48-2,CE7,카페,음식점 > 카페 > 커피전문점 > 스타벅스,,7962128,1522-3232,스타벅스 주얼리시티점,http://place.map.kakao.com/7962128,서울 종로구 종로 183,126.998134500867,37.5715779684766
서울 중구 흥인동 86,CE7,카페,음식점 > 카페 > 커피전문점 > 스타벅스,,165582609,,스타벅스 신당역사거리점,http://place.map.kakao.com/165582609,서울 중구 다산로 258,127.01643051948,37.5658068639605
서울 종로구 인의동 28-8,CE7,카페,음식점 > 카페 > 커피전문점 > 스타벅스,,472529831,1522-3232,스타벅스 종로플레이스점,http://place.map.kakao.com/472529831,서울 종로구 창경궁로 120,126.998247665782,37.5729799185395
서울 중구 을지로7가 143,CE7,카페,음식점 > 카페 > 커피전문점 > 스타벅스,,660709111,1522-3232,스타벅스 동대문디자인플라자점,http://place.map.kakao.com/660709111,서울 중구 을지로 281,127.00967559784698,37.567350115843446
서울 중구 흥인동 132,CE7,카페,음식점 > 카페 > 커피전문점 > 스타벅스,,22105142,1522-3232,스타벅스 신당역점,http://place.map.kakao.com/22105142,서울 중구 퇴계로 385,127.01431832258471,37.565338621053
서울 중구 을지로6가 18-131,CE7,카페,음식점 > 카페 > 커피전문점 > 스타벅스,,288159067,1522-3232,스타벅스 국립중앙의료원점,http://place.map.kakao.com/288159067,서울 중구 을지로 251,127.00634316800016,37.56645295001367
서울 중구 광희동1가 185-1,CE7,카페,음식점 > 카페 > 커피전문점 > 스타벅스,,321907882,1522-3232,스타벅스 동대문공원점,http://place.map.kakao.com/321907882,서울 중구 장충단로 229,127.007230456427,37.5651987124977
서울 성동구 하왕십리동 1070-3,CE7,카페,음식점 > 카페 > 커피전문점 > 스타벅스,,324012796,1522-3232,스타벅스 상왕십리역점,http://place.map.kakao.com/324012796,서울 성동구 왕십리로 382,127.02792572453,37.5650766997171
서울 종로구 계동 101-14,CE7,카페,음식점 > 카페 > 커피전문점 > 스타벅스,,26410050,,스타벅스 북촌로점,http://place.map.kakao.com/26410050,서울 종로구 북촌로4길 23,126.986464650391,37.5794518998118
서울 동대문구 전농동 588-1,CE7,카페,음식점 > 카페 > 커피전문점 > 스타벅스,,1609221649,1522-3232,스타벅스 청량리역사점,http://place.map.kakao.com/1609221649,서울 동대문구 왕산로 214,127.047808173856,37.5807944854701
서울 종로구 종로3가 9-3,CE7,카페,음식점 > 카페 > 커피전문점 > 스타벅스,,17351323,1522-3232,스타벅스 종로3가점,http://place.map.kakao.com/17351323,서울 종로구 종로 113-1,126.990215316036,37.5705792749895
서울 중구 을지로4가 323,CE7,카페,음식점 > 카페 > 커피전문점 > 스타벅스,,2059657767,1522-3232,스타벅스 을지로4가역점,http://place.map.kakao.com/2059657767,서울 중구 을지로 170,126.997328727022,37.5661395435934
서울 종로구 인사동 39,CE7,카페,음식점 > 카페 > 커피전문점 > 스타벅스,,8430510,1522-3232,스타벅스 인사점,http://place.map.kakao.com/8430510,서울 종로구 인사동길 14,126.98688705882,37.5722187634845
서울 성북구 동선동1가 92-1,CE7,카페,음식점 > 카페 > 커피전문점 > 스타벅스,,17884760,1522-3232,스타벅스 성신여대점,http://place.map.kakao.com/17884760,서울 성북구 동소문로24길 12,127.018456564409,37.5931679490386
서울 성북구 종암동 29-10,CE7,카페,음식점 > 카페 > 커피전문점 > 스타벅스,,1925239650,1522-3232,스타벅스 종암DT점,http://place.map.kakao.com/1925239650,서울 성북구 종암로 17,127.036110806959,37.5918231921731
서울 성북구 동선동2가 134,CE7,카페,음식점 > 카페 > 커피전문점 > 스타벅스,,1879177739,1522-3232(팩스),스타벅스 성신여대정문점,http://place.map.kakao.com/1879177739,서울 성북구 보문로34길 62,127.01882965329546,37.59089919216606
서울 성북구 안암동5가 92,CE7,카페,음식점 > 카페 > 커피전문점 > 스타벅스,,18691197,1522-3232,스타벅스 안암역점,http://place.map.kakao.com/18691197,서울 성북구 고려대로 102-2,127.03076860251483,37.58610880934777
서울 성북구 성북동1가 35-1,CE7,카페,음식점 > 카페 > 커피전문점 > 스타벅스,,17064822,1522-3232,스타벅스 한성대입구역점,http://place.map.kakao.com/17064822,서울 성북구 성북로 11,127.00497054935542,37.5891427533446
서울 성북구 안암동5가 104-30,CE7,카페,음식점 > 카페 > 커피전문점 > 스타벅스,,7961278,1522-3232,스타벅스 고대점,http://place.map.kakao.com/7961278,서울 성북구 고려대로24길 51,127.029626494749,37.5839575300361
서울 성북구 동소문동2가 12,CE7,카페,음식점 > 카페 > 커피전문점 > 스타벅스,,23325995,1522-3232,스타벅스 삼선교점,http://place.map.kakao.com/23325995,서울 성북구 동소문로 10,127.007390117722,37.58877682369543
서울 성북구 안암동5가 126-1,CE7,카페,음식점 > 카페 > 커피전문점 > 스타벅스,,7977522,1522-3232,스타벅스 고대안암병원점,http://place.map.kakao.com/7977522,서울 성북구 고려대로 73,127.02811846846494,37.587014067220345
서울 노원구 공릉동 597-34,CE7,카페,음식점 > 카페 > 커피전문점 > 스타벅스,,1826125340,1522-3232,스타벅스 공릉DT점,http://place.map.kakao.com/1826125340,서울 노원구 동일로 1015,127.07426417069411,37.620790371073866
서울 노원구 상계동 712,CE7,카페,음식점 > 카페 > 커피전문점 > 스타벅스,,19469879,1522-3232,스타벅스 노원역점,http://place.map.kakao.com/19469879,서울 노원구 동일로 1413,127.06006164256367,37.65472035675518
서울 노원구 상계동 372-16,CE7,카페,음식점 > 카페 > 커피전문점 > 스타벅스,,1800821127,1522-3232,스타벅스 상계초교사거리점,http://place.map.kakao.com/1800821127,서울 노원구 노원로 449,127.066441245826,37.6566702654055
서울 노원구 공릉동 379-27,CE7,카페,음식점 > 카페 > 커피전문점 > 스타벅스,,799469641,1522-3232,스타벅스 공릉역점,http://place.map.kakao.com/799469641,서울 노원구 동일로 1081,127.07223694894179,37.626422618227
서울 노원구 상계동 723,CE7,카페,음식점 > 카페 > 커피전문점 > 스타벅스,,18691127,1522-3232,스타벅스 노원KT점,http://place.map.kakao.com/18691127,서울 노원구 노해로 502,127.063470345532,37.6546284737532
서울 노원구 공릉동 653-8,CE7,카페,음식점 > 카페 > 커피전문점 > 스타벅스,,944088477,,스타벅스 태릉입구역DT,http://place.map.kakao.com/944088477,서울 노원구 화랑로 469,127.07934560540714,37.61922817503568
서울 노원구 상계동 763-3,CE7,카페,음식점 > 카페 > 커피전문점 > 스타벅스,,20046343,1522-3232,스타벅스 중계역점,http://place.map.kakao.com/20046343,서울 노원구 동일로 1339,127.062204808397,37.6481817147963
서울 노원구 상계동 694,CE7,카페,음식점 > 카페 > 커피전문점 > 스타벅스,,2080972721,1522-3232,스타벅스 노원마들역점,http://place.map.kakao.com/2080972721,서울 노원구 노원로 547,127.05802437230538,37.66092103259188
서울 노원구 월계동 635-6,CE7,카페,음식점 > 카페 > 커피전문점 > 스타벅스,,1516356548,1522-3232,스타벅스 월계역점,http://place.map.kakao.com/1516356548,서울 노원구 초안산로2라길 26,127.05741647998626,37.629454471026435
서울 노원구 중계동 360-6,CE7,카페,음식점 > 카페 > 커피전문점 > 스타벅스,,10538293,1522-3232,스타벅스 은행사거리점,http://place.map.kakao.com/10538293,서울 노원구 중계로 217,127.075977055248,37.6504801657301
서울 노원구 월계동 410-1,CE7,카페,음식점 > 카페 > 커피전문점 > 스타벅스,,17884753,1522-3232,스타벅스 광운대점,http://place.map.kakao.com/17884753,서울 노원구 석계로 104,127.060820134493,37.6231891063632
서울 노원구 월계동 333-1,CE7,카페,음식점 > 카페 > 커피전문점 > 스타벅스,,19469878,1522-3232,스타벅스 월계이마트점,http://place.map.kakao.com/19469878,서울 노원구 마들로3길 15,127.062096653474,37.6271527835984
서울 도봉구 창동 75-3,CE7,카페,음식점 > 카페 > 커피전문점 > 스타벅스,,697641350,1522-3232,스타벅스 창동이마트점,http://place.map.kakao.com/697641350,서울 도봉구 노해로65길 4,127.046868813877,37.6516449755707
서울 도봉구 창동 1-28,CE7,카페,음식점 > 카페 > 커피전문점 > 스타벅스,,908841696,1522-3232,스타벅스 창동역점,http://place.map.kakao.com/908841696,서울 도봉구 마들로13길 61,127.04997007453223,37.65460162858578
서울 도봉구 쌍문동 707-9,CE7,카페,음식점 > 카페 > 커피전문점 > 스타벅스,,474419088,1522-3232,스타벅스 도봉로DT점,http://place.map.kakao.com/474419088,서울 도봉구 도봉로 635,127.041629725755,37.6611802326364
서울 도봉구 방학동 707-6,CE7,카페,음식점 > 카페 > 커피전문점 > 스타벅스,,1340630386,1522-3232,스타벅스 방학역점,http://place.map.kakao.com/1340630386,서울 도봉구 도봉로 684,127.043589434428,37.6653465622203
서울 도봉구 창동 659-5,CE7,카페,음식점 > 카페 > 커피전문점 > 스타벅스,,22547060,1522-3232,스타벅스 쌍문역점,http://place.map.kakao.com/22547060,서울 도봉구 도봉로 480,127.03490529996,37.6483515237595
서울 도봉구 창동 650-45,CE7,카페,음식점 > 카페 > 커피전문점 > 스타벅스,,519080844,1522-3232,스타벅스 쌍문도봉로점,http://place.map.kakao.com/519080844,서울 도봉구 도봉로 444,127.033118153379,37.645389604873
서울 강북구 수유동 174-13,CE7,카페,음식점 > 카페 > 커피전문점 > 스타벅스,,27020659,1522-3232,스타벅스 강북구청사거리점,http://place.map.kakao.com/27020659,서울 강북구 도봉로 365,127.027396306598,37.6400139982618
서울 강북구 번동 418-20,CE7,카페,음식점 > 카페 > 커피전문점 > 스타벅스,,10534106,,스타벅스 수유역점,http://place.map.kakao.com/10534106,서울 강북구 도봉로 342,127.026294369466,37.6381798439037
서울 성북구 장위동 143-38,CE7,카페,음식점 > 카페 > 커피전문점 > 스타벅스,,924817836,,스타벅스 장위뉴타운점,http://place.map.kakao.com/924817836,서울 성북구 장월로38길 4,127.05151211017781,37.61806331358951
서울 강북구 미아동 121-19,CE7,카페,음식점 > 카페 > 커피전문점 > 스타벅스,,17884745,1522-3232,스타벅스 미아역점,http://place.map.kakao.com/17884745,서울 강북구 도봉로 196,127.02654615622092,37.62618135859377
서울 강북구 우이동 산 13-2,CE7,카페,음식점 > 카페 > 커피전문점 > 스타벅스,,647290928,1522-3232,스타벅스 파라스파라서울점,http://place.map.kakao.com/647290928,서울 강북구 삼양로 689,127.01040785074682,37.664181980998364
서울 중랑구 묵동 169-12,CE7,카페,음식점 > 카페 > 커피전문점 > 스타벅스,,1937762094,1522-3232,스타벅스 묵동점,http://place.map.kakao.com/1937762094,서울 중랑구 동일로 952,127.076879107253,37.61533393573
서울 강북구 미아동 35-30,CE7,카페,음식점 > 카페 > 커피전문점 > 스타벅스,,26572250,1522-3232,스타벅스 미아사거리역점,http://place.map.kakao.com/26572250,서울 강북구 도봉로 32,127.03058891879,37.6118231378487
서울 강북구 미아동 812-2,CE7,카페,음식점 > 카페 > 커피전문점 > 스타벅스,,1583585647,,스타벅스 미아뉴타운점,http://place.map.kakao.com/1583585647,서울 강북구 삼양로 161,127.02114611983023,37.61834476046741
서울 성북구 하월곡동 89-7,CE7,카페,음식점 > 카페 > 커피전문점 > 스타벅스,,182417110,1522-3232,스타벅스 미아점,http://place.map.kakao.com/182417110,서울 성북구 동소문로 314,127.029305165679,37.6075816059343
서울 성북구 하월곡동 46-73,CE7,카페,음식점 > 카페 > 커피전문점 > 스타벅스,,19964144,1522-3232,스타벅스 월곡역점,http://place.map.kakao.com/19964144,서울 성북구 화랑로 76,127.04059223371526,37.60196239252755
서울 성북구 길음동 864-9,CE7,카페,음식점 > 카페 > 커피전문점 > 스타벅스,,119957965,1522-3232,스타벅스 미아이마트,http://place.map.kakao.com/119957965,서울 성북구 도봉로 17,127.02993389843303,37.61086285147552
서울 성북구 종암동 3-686,CE7,카페,음식점 > 카페 > 커피전문점 > 스타벅스,,27198954,,스타벅스 종암점,http://place.map.kakao.com/27198954,서울 성북구 종암로 122,127.033850424728,37.6010644291624
서울 중랑구 중화동 306-71,CE7,카페,음식점 > 카페 > 커피전문점 > 스타벅스,,218720613,1522-3232,스타벅스 중화역점,http://place.map.kakao.com/218720613,서울 중랑구 봉화산로 35,127.07828753292532,37.60181546732204
서울 중랑구 신내동 563-3,CE7,카페,음식점 > 카페 > 커피전문점 > 스타벅스,,26785139,,스타벅스 중랑구청점,http://place.map.kakao.com/26785139,서울 중랑구 신내로 72,127.09564556772195,37.60540573562112
서울 성북구 길음동 20-1,CE7,카페,음식점 > 카페 > 커피전문점 > 스타벅스,,10537183,1522-3232,스타벅스 현대미아점,http://place.map.kakao.com/10537183,서울 성북구 동소문로 315,127.02872550562827,37.608374619277164
서울 동대문구 이문동 305-60,CE7,카페,음식점 > 카페 > 커피전문점 > 스타벅스,,8439657,,스타벅스 외대점,http://place.map.kakao.com/8439657,서울 동대문구 휘경로 12-1,127.061413776275,37.5957338545738
서울 동대문구 이문동 329-1,CE7,카페,음식점 > 카페 > 커피전문점 > 스타벅스,,212140549,1522-3232,스타벅스 외대정문점,http://place.map.kakao.com/212140549,서울 동대문구 이문로 93,127.059298210969,37.5952952526032
서울 중랑구 상봉동 100-2,CE7,카페,음식점 > 카페 > 커피전문점 > 스타벅스,,17884784,1522-3232,스타벅스 상봉역점,http://place.map.kakao.com/17884784,서울 중랑구 망우로 307,127.086476137529,37.5968930454807
서울 동대문구 회기동 346-18,CE7,카페,음식점 > 카페 > 커피전문점 > 스타벅스,,24868732,1522-3232,스타벅스 회기역사거리점,http://place.map.kakao.com/24868732,서울 동대문구 이문로 37,127.0564052274,37.5909755140802
서울 동대문구 회기동 16-41,CE7,카페,음식점 > 카페 > 커피전문점 > 스타벅스,,13049478,1522-3232,스타벅스 경희대점,http://place.map.kakao.com/13049478,서울 동대문구 경희대로 16-1,127.05277655851455,37.59294766175779
서울 동대문구 회기동 60-40,CE7,카페,음식점 > 카페 > 커피전문점 > 스타벅스,,1853475772,,스타벅스 경희대삼거리점,http://place.map.kakao.com/1853475772,서울 동대문구 회기로 141,127.052057736553,37.5915937901333
서울 은평구 진관동 277-11,CE7,카페,음식점 > 카페 > 커피전문점 > 스타벅스,,76206032,1522-3232,스타벅스 더북한산점,http://place.map.kakao.com/76206032,서울 은평구 대서문길 24-11,126.947556601185,37.6554573891378
서울 은평구 진관동 2-8,CE7,카페,음식점 > 카페 > 커피전문점 > 스타벅스,,811506917,,스타벅스 진관DT점,http://place.map.kakao.com/811506917,서울 은평구 연서로 645,126.93623771397137,37.650144125590586
서울 은평구 진관동 90-1,CE7,카페,음식점 > 카페 > 커피전문점 > 스타벅스,,26900385,1522-3232,스타벅스 구파발역점,http://place.map.kakao.com/26900385,서울 은평구 진관2로 12,126.91871234420786,37.6343454066031
서울 은평구 불광동 308-1,CE7,카페,음식점 > 카페 > 커피전문점 > 스타벅스,,2045961313,1522-3232,스타벅스 연신내역사거리점,http://place.map.kakao.com/2045961313,서울 은평구 통일로 842,126.9217762570655,37.6187604104358
서울 은평구 대조동 224-14,CE7,카페,음식점 > 카페 > 커피전문점 > 스타벅스,,17884764,1522-3232,스타벅스 구산역점,http://place.map.kakao.com/17884764,서울 은평구 연서로 146,126.917760665264,37.6117407836906
서울 은평구 갈현동 395-6,CE7,카페,음식점 > 카페 > 커피전문점 > 스타벅스,,840743372,1522-3232,스타벅스 연신내점,http://place.map.kakao.com/840743372,서울 은평구 통일로 867,126.91995670313499,37.62023680993725
서울 은평구 진관동 65,CE7,카페,음식점 > 카페 > 커피전문점 > 스타벅스,,363897391,1522-3232,스타벅스 구파발사거리점,http://place.map.kakao.com/363897391,서울 은평구 진관3로 21,126.91887433800636,37.6395694287727
서울 종로구 평창동 220,CE7,카페,음식점 > 카페 > 커피전문점 > 스타벅스,,1846455949,1522-3232,스타벅스 종로평창동점,http://place.map.kakao.com/1846455949,서울 종로구 평창12길 3,126.96723672917432,37.60616794466298
서울 종로구 세종로 185-2,CE7,카페,음식점 > 카페 > 커피전문점 > 스타벅스,,7961649,1522-3232,스타벅스 광화문점,http://place.map.kakao.com/7961649,서울 종로구 세종대로 167,126.97629649901215,37.57122962143047
서울 종로구 삼청동 112,CE7,카페,음식점 > 카페 > 커피전문점 > 스타벅스,,25115112,1522-3232,스타벅스 삼청동점,http://place.map.kakao.com/25115112,서울 종로구 삼청로 111-1,126.981758216736,37.585350971846
서울 종로구 재동 109,CE7,카페,음식점 > 카페 > 커피전문점 > 스타벅스,,25115113,1522-3232,스타벅스 안국점,http://place.map.kakao.com/25115113,서울 종로구 북촌로 5-1,126.98569069000449,37.57739393795513
서울 서대문구 홍제동 301-19,CE7,카페,음식점 > 카페 > 커피전문점 > 스타벅스,,143734770,1522-3232,스타벅스 홍제역점,http://place.map.kakao.com/143734770,서울 서대문구 통일로 451,126.943945274312,37.5886258931952
서울 서대문구 창천동 13-19,CE7,카페,음식점 > 카페 > 커피전문점 > 스타벅스,,12695523,1522-3232,스타벅스 신촌명물거리점,http://place.map.kakao.com/12695523,서울 서대문구 명물길 24,126.938155627947,37.5577765440044
서울 서대문구 신촌동 134,CE7,카페,음식점 > 카페 > 커피전문점 > 스타벅스,,27126790,1522-3232,스타벅스 연세백양로점,http://place.map.kakao.com/27126790,서울 서대문구 연세로 50,126.9374315545726,37.56288121015615
서울 서대문구 대신동 115,CE7,카페,음식점 > 카페 > 커피전문점 > 스타벅스,,17127094,,스타벅스 연대동문점,http://place.map.kakao.com/17127094,서울 서대문구 성산로 565,126.946329787722,37.5665093968954
서울 서대문구 대현동 45-8,CE7,카페,음식점 > 카페 > 커피전문점 > 스타벅스,,718205768,1522-3232,스타벅스 이대역점,http://place.map.kakao.com/718205768,서울 서대문구 신촌로 183,126.946323012611,37.5570209988713
서울 서대문구 북아현동 1015,CE7,카페,음식점 > 카페 > 커피전문점 > 스타벅스,,447976009,1522-3232,스타벅스 아현역점,http://place.map.kakao.com/447976009,서울 서대문구 신촌로35길 10,126.9562115809291,37.558263050501644
서울 서대문구 대신동 5,CE7,카페,음식점 > 카페 > 커피전문점 > 스타벅스,,7961931,1522-3232,스타벅스 연세종합관점,http://place.map.kakao.com/7961931,서울 서대문구 연세로 50-1,126.941122480973,37.5614721479689
서울 서대문구 창천동 33-9,CE7,카페,음식점 > 카페 > 커피전문점 > 스타벅스,,10538286,1522-3232,스타벅스 연대점,http://place.map.kakao.com/10538286,서울 서대문구 연세로 35,126.936715226399,37.558712817702
서울 서대문구 충정로3가 464,CE7,카페,음식점 > 카페 > 커피전문점 > 스타벅스,,12385467,1522-3232,스타벅스 충정타워점,http://place.map.kakao.com/12385467,서울 서대문구 서소문로 21,126.964271243665,37.5600362236744
서울 서대문구 대현동 11-1,CE7,카페,음식점 > 카페 > 커피전문점 > 스타벅스,,11116783,,스타벅스 이대ECC점,http://place.map.kakao.com/11116783,서울 서대문구 이화여대길 52,126.9476665984025,37.56160407256397
서울 서대문구 충정로3가 470,CE7,카페,음식점 > 카페 > 커피전문점 > 스타벅스,,17884757,1522-3232,스타벅스 충정로역점,http://place.map.kakao.com/17884757,,126.963292618166,37.5615604100236
서울 서대문구 창천동 20-25,CE7,카페,음식점 > 카페 > 커피전문점 > 스타벅스,,17127080,1522-3232,스타벅스 신촌아트레온점,http://place.map.kakao.com/17127080,서울 서대문구 신촌로 129,126.940393021019,37.5564982786297
서울 서대문구 충정로2가 191,CE7,카페,음식점 > 카페 > 커피전문점 > 스타벅스,,7968067,1522-3232,스타벅스 경기대점,http://place.map.kakao.com/7968067,서울 서대문구 충정로 53,126.96469505712226,37.563733140281016
서울 서대문구 창천동 30-33,CE7,카페,음식점 > 카페 > 커피전문점 > 스타벅스,,1864551274,1522-3232,스타벅스 현대신촌점,http://place.map.kakao.com/1864551274,서울 서대문구 신촌로 83,126.93583015829385,37.55608953714092
서울 종로구 교북동 126,CE7,카페,음식점 > 카페 > 커피전문점 > 스타벅스,,752042017,1522-3232,스타벅스 독립문역점,http://place.map.kakao.com/752042017,서울 종로구 송월길 155,126.9615683448808,37.57135098388506
서울 은평구 응암동 96-1,CE7,카페,음식점 > 카페 > 커피전문점 > 스타벅스,,24765609,1522-3232,스타벅스 은평구청입구점,http://place.map.kakao.com/24765609,서울 은평구 은평로 170,126.926831662023,37.6012159894211
서울 종로구 통의동 35-41,CE7,카페,음식점 > 카페 > 커피전문점 > 스타벅스,,12690667,1522-3232,스타벅스 경복궁역점,http://place.map.kakao.com/12690667,서울 종로구 자하문로4길 6,126.972676532641,37.5772042362666
서울 은평구 녹번동 19-121,CE7,카페,음식점 > 카페 > 커피전문점 > 스타벅스,,893937633,1522-3232,스타벅스 녹번역점,http://place.map.kakao.com/893937633,서울 은평구 통일로 636,126.93529131644075,37.6033346541093
서울 은평구 응암동 90-1,CE7,카페,음식점 > 카페 > 커피전문점 > 스타벅스,,7968411,1522-3232,스타벅스 은평이마트점,http://place.map.kakao.com/7968411,서울 은평구 은평로 111,126.920255261814,37.6005305803685
서울 종로구 평동 222,CE7,카페,음식점 > 카페 > 커피전문점 > 스타벅스,,41118031,1522-3232,스타벅스 서대문역,http://place.map.kakao.com/41118031,서울 종로구 통일로 134,126.966255639961,37.5667978843786
서울 종로구 사직동 9,CE7,카페,음식점 > 카페 > 커피전문점 > 스타벅스,,8439655,1522-3232,스타벅스 스페이스본점,http://place.map.kakao.com/8439655,서울 종로구 사직로8길 4,126.969217894229,37.5749076511881
서울 종로구 적선동 66,CE7,카페,음식점 > 카페 > 커피전문점 > 스타벅스,,8404389,1522-3232,스타벅스 적선점,http://place.map.kakao.com/8404389,서울 종로구 새문안로5길 55,126.97411605389239,37.57527012561527
서울 종로구 당주동 128-27,CE7,카페,음식점 > 카페 > 커피전문점 > 스타벅스,,506743578,1522-3232,스타벅스 경희궁로점,http://place.map.kakao.com/506743578,서울 종로구 새문안로3길 15,126.97229254565359,37.57168104918171
서울 은평구 대조동 15-9,CE7,카페,음식점 > 카페 > 커피전문점 > 스타벅스,,1484410257,1522-3232,스타벅스 불광역점,http://place.map.kakao.com/1484410257,서울 은평구 통일로 715,126.930302807418,37.6094351176591
서울 마포구 동교동 159-1,CE7,카페,음식점 > 카페 > 커피전문점 > 스타벅스,,22105109,1522-3232,스타벅스 홍대역점,http://place.map.kakao.com/22105109,서울 마포구 양화로 165,126.923637798148,37.5572887166274
서울 마포구 동교동 166-1,CE7,카페,음식점 > 카페 > 커피전문점 > 스타벅스,,231272664,1522-3232,스타벅스 홍대공항철도역점,http://place.map.kakao.com/231272664,서울 마포구 양화로 178,126.92518582665798,37.557509550972256
서울 마포구 도화동 22,CE7,카페,음식점 > 카페 > 커피전문점 > 스타벅스,,26900353,1522-3232,스타벅스 공덕오거리점,http://place.map.kakao.com/26900353,서울 마포구 마포대로 86,126.950678348338,37.5427754107362
서울 마포구 합정동 472,CE7,카페,음식점 > 카페 > 커피전문점 > 스타벅스,,2057327896,1522-3232,스타벅스 합정점,http://place.map.kakao.com/2057327896,서울 마포구 월드컵로1길 14,126.91253700818196,37.54994959743763
서울 마포구 서교동 475-13,CE7,카페,음식점 > 카페 > 커피전문점 > 스타벅스,,12776689,1522-3232,스타벅스 망원역점,http://place.map.kakao.com/12776689,서울 마포구 월드컵로 74,126.91070575438697,37.5558452570744
서울 마포구 서교동 374-20,CE7,카페,음식점 > 카페 > 커피전문점 > 스타벅스,,27416913,1522-3232,스타벅스 서교동사거리점,http://place.map.kakao.com/27416913,서울 마포구 양화로 105,126.91857176870901,37.553373200654896
서울 마포구 상암동 1654,CE7,카페,음식점 > 카페 > 커피전문점 > 스타벅스,,7961821,1522-3232,스타벅스 상암DMC점,http://place.map.kakao.com/7961821,서울 마포구 월드컵북로 375,126.89092735851,37.5776651695006
서울 마포구 동교동 205-6,CE7,카페,음식점 > 카페 > 커피전문점 > 스타벅스,,20705154,1522-3232,스타벅스 동교점,http://place.map.kakao.com/20705154,서울 마포구 월드컵북로 22,126.919993980608,37.5568646370831
서울 마포구 상수동 86-22,CE7,카페,음식점 > 카페 > 커피전문점 > 스타벅스,,17127074,1522-3232,스타벅스 홍대삼거리점,http://place.map.kakao.com/17127074,서울 마포구 와우산로 64,126.92328058235611,37.55025439607592
서울 마포구 공덕동 254-8,CE7,카페,음식점 > 카페 > 커피전문점 > 스타벅스,,1201355052,1522-3232,스타벅스 공덕점,http://place.map.kakao.com/1201355052,서울 마포구 마포대로 130,126.952953039723,37.5459118163509
서울 마포구 용강동 112-2,CE7,카페,음식점 > 카페 > 커피전문점 > 스타벅스,,1279375864,1522-3232,스타벅스 마포용강동점,http://place.map.kakao.com/1279375864,서울 마포구 토정로 295,126.94213983925681,37.541174063448715
서울 마포구 염리동 168-9,CE7,카페,음식점 > 카페 > 커피전문점 > 스타벅스,,1648263805,,스타벅스 마포염리점,http://place.map.kakao.com/1648263805,서울 마포구 독막로 311,126.947676729406,37.5438769421546
서울 마포구 상암동 1623,CE7,카페,음식점 > 카페 > 커피전문점 > 스타벅스,,1145283113,1522-3232,스타벅스 디지털미디어시티역,http://place.map.kakao.com/1145283113,서울 마포구 성암로 179,126.89894222717868,37.576124395186376
서울 마포구 상암동 1597,CE7,카페,음식점 > 카페 > 커피전문점 > 스타벅스,,705098136,,스타벅스 상암사보이시티,http://place.map.kakao.com/705098136,서울 마포구 월드컵북로54길 17,126.888358448933,37.581619931421
서울 마포구 노고산동 54-1,CE7,카페,음식점 > 카페 > 커피전문점 > 스타벅스,,1132693025,1522-3232,스타벅스 신촌오거리점,http://place.map.kakao.com/1132693025,서울 마포구 신촌로16길 10,126.934699199575,37.5551906225976
서울 마포구 도화동 50-1,CE7,카페,음식점 > 카페 > 커피전문점 > 스타벅스,,7968246,1522-3232,스타벅스 마포일진빌딩점,http://place.map.kakao.com/7968246,서울 마포구 마포대로 45,126.946334987977,37.540319193648
서울 마포구 상수동 329-1,CE7,카페,음식점 > 카페 > 커피전문점 > 스타벅스,,26848996,1522-3232,스타벅스 상수역점,http://place.map.kakao.com/26848996,서울 마포구 독막로 88,126.923272022704,37.5475649101839
서울 마포구 동교동 165-1,CE7,카페,음식점 > 카페 > 커피전문점 > 스타벅스,,1485627824,1522-3232,스타벅스 홍대역8번출구점,http://place.map.kakao.com/1485627824,서울 마포구 양화로 166,126.924168013515,37.5567448560452
서울 마포구 도화동 563,CE7,카페,음식점 > 카페 > 커피전문점 > 스타벅스,,8439651,1522-3232,스타벅스 마포아크로점,http://place.map.kakao.com/8439651,서울 마포구 마포대로 68,126.94908487325185,37.54149982001203
서울 마포구 창전동 130,CE7,카페,음식점 > 카페 > 커피전문점 > 스타벅스,,1572099327,,스타벅스 서강광흥창역점,http://place.map.kakao.com/1572099327,서울 마포구 서강로 69,126.931657893743,37.5493756625598
서울 마포구 상암동 1603,CE7,카페,음식점 > 카페 > 커피전문점 > 스타벅스,,25115118,1522-3232,스타벅스 상암MBC점,http://place.map.kakao.com/25115118,서울 마포구 성암로 267,126.891579254585,37.580909346919
서울 마포구 상암동 1647,CE7,카페,음식점 > 카페 > 커피전문점 > 스타벅스,,26576374,1522-3232,스타벅스 상암디지털큐브점,http://place.map.kakao.com/26576374,서울 마포구 상암산로 34,126.888887454039,37.5760847257114
서울 마포구 대흥동 111-1,CE7,카페,음식점 > 카페 > 커피전문점 > 스타벅스,,184349526,,스타벅스 서강대흥역점,http://place.map.kakao.com/184349526,서울 마포구 백범로 89,126.94154932438668,37.54824481409055
서울 마포구 아현동 618-19,CE7,카페,음식점 > 카페 > 커피전문점 > 스타벅스,,1273658183,1522-3232,스타벅스 마포경찰서후문점,http://place.map.kakao.com/1273658183,서울 마포구 마포대로 173-14,126.953429793163,37.5507990220317
서울 마포구 신수동 63-14,CE7,카페,음식점 > 카페 > 커피전문점 > 스타벅스,,25115119,1522-3232,스타벅스 서강대점,http://place.map.kakao.com/25115119,서울 마포구 백범로 23,126.93766671300212,37.55233065760533
서울 마포구 아현동 738,CE7,카페,음식점 > 카페 > 커피전문점 > 스타벅스,,8403569,1522-3232,스타벅스 애오개역점,http://place.map.kakao.com/8403569,서울 마포구 마포대로 201,126.95568767065,37.5523568157921
서울 마포구 동교동 173-14,CE7,카페,음식점 > 카페 > 커피전문점 > 스타벅스,,256271963,1522-3232,스타벅스 홍대동교점,http://place.map.kakao.com/256271963,서울 마포구 양화로 192,126.926246614786,37.5583283237088
서울 마포구 합정동 473,CE7,카페,음식점 > 카페 > 커피전문점 > 스타벅스,,2132676511,1522-3232,스타벅스 합정푸르지오점,http://place.map.kakao.com/2132676511,서울 마포구 월드컵로3길 14,126.91247704039314,37.550909116022105
서울 마포구 신공덕동 173,CE7,카페,음식점 > 카페 > 커피전문점 > 스타벅스,,17127071,1522-3232,스타벅스 마포이마트점,http://place.map.kakao.com/17127071,서울 마포구 백범로 212,126.953312882876,37.5422863379749
서울 마포구 아현동 330-5,CE7,카페,음식점 > 카페 > 커피전문점 > 스타벅스,,1676336171,1522-3232,스타벅스 아현역대로점,http://place.map.kakao.com/1676336171,서울 마포구 신촌로 262,126.954829281311,37.5570524904706
서울 마포구 상암동 1607,CE7,카페,음식점 > 카페 > 커피전문점 > 스타벅스,,1161931660,1522-3232,스타벅스 상암YTN점,http://place.map.kakao.com/1161931660,서울 마포구 상암산로 76,126.89220880621265,37.579273719337785
서울 마포구 신수동 1-1,CE7,카페,음식점 > 카페 > 커피전문점 > 스타벅스,,892961860,02-702-3804,스타벅스 서강대프라자점,http://place.map.kakao.com/892961860,서울 마포구 백범로 35,126.94309636843822,37.55107290278261
서울 서대문구 남가좌동 385,CE7,카페,음식점 > 카페 > 커피전문점 > 스타벅스,,2060053572,,스타벅스 가재울뉴타운점,http://place.map.kakao.com/2060053572,서울 서대문구 가재울미래로 2,126.91631259025394,37.57489101111376
서울 은평구 수색동 30-2,CE7,카페,음식점 > 카페 > 커피전문점 > 스타벅스,,1359139681,1522-3232,스타벅스 수색점,http://place.map.kakao.com/1359139681,서울 은평구 수색로 216,126.89955960905561,37.58002802733563
서울 서대문구 북가좌동 309-16,CE7,카페,음식점 > 카페 > 커피전문점 > 스타벅스,,458225000,1522-3232,스타벅스 북가좌DT점,http://place.map.kakao.com/458225000,서울 서대문구 응암로 85,126.9114913524861,37.58057276673104
서울 서대문구 남가좌동 352-15,CE7,카페,음식점 > 카페 > 커피전문점 > 스타벅스,,1907850913,1522-3232,스타벅스 남가좌사거리점,http://place.map.kakao.com/1907850913,서울 서대문구 거북골로 84,126.920187261092,37.5772552002689
서울 서대문구 연희동 188-2,CE7,카페,음식점 > 카페 > 커피전문점 > 스타벅스,,1432966034,1522-3232,스타벅스 연희동점,http://place.map.kakao.com/1432966034,서울 서대문구 연희로 97,126.930519204778,37.5667173897309
서울 서대문구 연희동 87-8,CE7,카페,음식점 > 카페 > 커피전문점 > 스타벅스,,26571462,1522-3232,스타벅스 연희DT점,http://place.map.kakao.com/26571462,서울 서대문구 연희로 144,126.933848477923,37.5701683129101
서울 은평구 신사동 338-4,CE7,카페,음식점 > 카페 > 커피전문점 > 스타벅스,,2133759729,1522-3232,스타벅스 새절역점,http://place.map.kakao.com/2133759729,서울 은평구 증산로 371,126.912863342984,37.5894269432406
서울 서대문구 창천동 18-55,CE7,카페,음식점 > 카페 > 커피전문점 > 스타벅스,,10538396,1522-3232,스타벅스 신촌점,http://place.map.kakao.com/10538396,서울 서대문구 연세로 10-1,126.937110958522,37.5564857641334
서울 서대문구 창천동 72-12,CE7,카페,음식점 > 카페 > 커피전문점 > 스타벅스,,1907611374,1522-3232,스타벅스 신촌역점,http://place.map.kakao.com/1907611374,서울 서대문구 신촌로 73,126.93468241875944,37.55626370127929
서울 강서구 마곡동 759-3,CE7,카페,음식점 > 카페 > 커피전문점 > 스타벅스,,1433534125,1522-3232,스타벅스 마곡나루,http://place.map.kakao.com/1433534125,서울 강서구 마곡중앙로 161-17,126.826136318604,37.5681306923844
서울 강서구 방화동 293-4,CE7,카페,음식점 > 카페 > 커피전문점 > 스타벅스,,482613052,1522-3232,스타벅스 방화DT,http://place.map.kakao.com/482613052,서울 강서구 방화대로 375,126.81643720411584,37.574448196168476
서울 강서구 화곡동 1073-10,CE7,카페,음식점 > 카페 > 커피전문점 > 스타벅스,,26617152,1522-3232,스타벅스 화곡동점,http://place.map.kakao.com/26617152,서울 강서구 화곡로 142,126.83740226502186,37.54056723191606
서울 강서구 등촌동 678-14,CE7,카페,음식점 > 카페 > 커피전문점 > 스타벅스,,23325994,1522-3232,스타벅스 발산역점,http://place.map.kakao.com/23325994,서울 강서구 강서로 388,126.83911937699966,37.56028791382789
서울 강서구 마곡동 728-234,CE7,카페,음식점 > 카페 > 커피전문점 > 스타벅스,,1143075069,1522-3232,스타벅스 마곡역,http://place.map.kakao.com/1143075069,서울 강서구 공항대로 168,126.82599715501443,37.55934398119595
서울 강서구 등촌동 73-1,CE7,카페,음식점 > 카페 > 커피전문점 > 스타벅스,,1037105014,1522-3232,스타벅스 가양역점,http://place.map.kakao.com/1037105014,서울 강서구 양천로 476,126.8536107571435,37.56157807618199
서울 강서구 마곡동 727-26,CE7,카페,음식점 > 카페 > 커피전문점 > 스타벅스,,1529498058,1522-3232,스타벅스 양천향교역,http://place.map.kakao.com/1529498058,서울 강서구 강서로 463,126.84047247196114,37.56691296769367
서울 강서구 마곡동 731-62,CE7,카페,음식점 > 카페 > 커피전문점 > 스타벅스,,1578796891,1522-3232,스타벅스 마곡나루공원,http://place.map.kakao.com/1578796891,서울 강서구 마곡중앙5로 47,126.8222691482277,37.5669194030235
서울 강서구 등촌동 668-9,CE7,카페,음식점 > 카페 > 커피전문점 > 스타벅스,,26555748,1522-3232,스타벅스 등촌,http://place.map.kakao.com/26555748,서울 강서구 공항대로 329,126.84431303151688,37.55820907037809
서울 강서구 화곡동 1111-1,CE7,카페,음식점 > 카페 > 커피전문점 > 스타벅스,,1648906311,1522-3232,스타벅스 강서구청사거리점,http://place.map.kakao.com/1648906311,서울 강서구 화곡로 350,126.852210475534,37.554809848353
서울 강서구 마곡동 773-2,CE7,카페,음식점 > 카페 > 커피전문점 > 스타벅스,,1010426293,1522-3232,스타벅스 마곡GMG,http://place.map.kakao.com/1010426293,서울 강서구 마곡중앙6로 16,126.829581367925,37.5604123842333
서울 강서구 염창동 282-23,CE7,카페,음식점 > 카페 > 커피전문점 > 스타벅스,,22682237,1522-3232,스타벅스 염창역점,http://place.map.kakao.com/22682237,서울 강서구 공항대로 627,126.87454530974277,37.5472168548992
서울 강서구 염창동 312,CE7,카페,음식점 > 카페 > 커피전문점 > 스타벅스,,1544040737,1522-3232,스타벅스 등촌대로점,http://place.map.kakao.com/1544040737,서울 강서구 공항대로 543,126.866368833694,37.5507253809572
서울 강서구 화곡동 1051-27,CE7,카페,음식점 > 카페 > 커피전문점 > 스타벅스,,1186321777,1522-3232,스타벅스 화곡역8번출구점,http://place.map.kakao.com/1186321777,서울 강서구 강서로 179,126.839321974376,37.5423628473275
서울 강서구 등촌동 628-9,CE7,카페,음식점 > 카페 > 커피전문점 > 스타벅스,,474084339,1522-3232,스타벅스 가양역사거리점,http://place.map.kakao.com/474084339,서울 강서구 화곡로 416,126.855419019391,37.5600251851564
서울 강서구 마곡동 801-2,CE7,카페,음식점 > 카페 > 커피전문점 > 스타벅스,,1190071802,1522-3232,스타벅스 발산역사거리점,http://place.map.kakao.com/1190071802,서울 강서구 공항대로 248,126.8351224270735,37.55848040769141
서울 강서구 내발산동 719-6,CE7,카페,음식점 > 카페 > 커피전문점 > 스타벅스,,1082320725,1522-3232,스타벅스 우장산역,http://place.map.kakao.com/1082320725,서울 강서구 강서로 267,126.83585283195558,37.54952281316778
서울 강서구 마곡동 759-2,CE7,카페,음식점 > 카페 > 커피전문점 > 스타벅스,,800218953,1522-3232,스타벅스 마곡웰튼,http://place.map.kakao.com/800218953,서울 강서구 마곡중앙5로 22,126.825305203297,37.5672825304792
서울 강서구 내발산동 668,CE7,카페,음식점 > 카페 > 커피전문점 > 스타벅스,,1856894636,1522-3232,스타벅스 내발산점,http://place.map.kakao.com/1856894636,서울 강서구 강서로 323,126.836552262812,37.5546702794501
서울 강서구 화곡동 1170,CE7,카페,음식점 > 카페 > 커피전문점 > 스타벅스,,49282068,1522-3232,스타벅스 강서우장산점,http://place.map.kakao.com/49282068,서울 강서구 강서로 231,126.836118023996,37.5462444503704
서울 강서구 등촌동 689,CE7,카페,음식점 > 카페 > 커피전문점 > 스타벅스,,144752310,,스타벅스 강서NC,http://place.map.kakao.com/144752310,서울 강서구 강서로56길 17,126.84054866204121,37.559843859714796
서울 양천구 목동 602-2,CE7,카페,음식점 > 카페 > 커피전문점 > 스타벅스,,617333242,1522-3232,스타벅스 등촌역점,http://place.map.kakao.com/617333242,서울 양천구 공항대로 566,126.86814421649235,37.548908262121664
서울 양천구 신월동 52-14,CE7,카페,음식점 > 카페 > 커피전문점 > 스타벅스,,964935317,1522-3232,스타벅스 신월동DT,http://place.map.kakao.com/964935317,서울 양천구 남부순환로 319,126.82709273313,37.5382766629732
서울 양천구 신월동 205-48,CE7,카페,음식점 > 카페 > 커피전문점 > 스타벅스,,26900383,1522-3232,스타벅스 신월IC DT점,http://place.map.kakao.com/26900383,서울 양천구 남부순환로 430,126.832131673807,37.5294757580385
서울 양천구 목동 907-4,CE7,카페,음식점 > 카페 > 커피전문점 > 스타벅스,,7961580,,스타벅스 목동점,http://place.map.kakao.com/7961580,서울 양천구 목동서로 67,126.878690771741,37.5365065039884
서울 양천구 목동 907-18,CE7,카페,음식점 > 카페 > 커피전문점 > 스타벅스,,1047495010,1522-3232,스타벅스 목동파리공원점,http://place.map.kakao.com/1047495010,서울 양천구 목동동로 377,126.878855588739,37.5353389770394
서울 양천구 목동 920,CE7,카페,음식점 > 카페 > 커피전문점 > 스타벅스,,118233082,1522-3232,스타벅스 목동SBS점,http://place.map.kakao.com/118233082,서울 양천구 목동서로 161,126.87357362065502,37.52890750393828
서울 마포구 망원동 205-8,CE7,카페,음식점 > 카페 > 커피전문점 > 스타벅스,,1752574662,1522-3232,스타벅스 망원한강공원점,http://place.map.kakao.com/1752574662,,126.89591772587283,37.55392483489065
서울 구로구 신도림동 413-9,CE7,카페,음식점 > 카페 > 커피전문점 > 스타벅스,,4357040,1522-3232,스타벅스 신도림점,http://place.map.kakao.com/4357040,서울 구로구 경인로 610,126.883975398101,37.5053263176745
서울 구로구 오류동 271,CE7,카페,음식점 > 카페 > 커피전문점 > 스타벅스,,895620917,1522-3232,스타벅스 구로오류DT점,http://place.map.kakao.com/895620917,서울 구로구 서해안로 2233,126.83447666279501,37.48811218152662
서울 구로구 오류동 55-50,CE7,카페,음식점 > 카페 > 커피전문점 > 스타벅스,,25115111,1522-3232,스타벅스 오류동역점,http://place.map.kakao.com/25115111,서울 구로구 경인로 216,126.844857947147,37.4962245157872
서울 구로구 구로동 573,CE7,카페,음식점 > 카페 > 커피전문점 > 스타벅스,,649401592,1522-3232,스타벅스 구로NC점,http://place.map.kakao.com/649401592,서울 구로구 구로중앙로 152,126.88253580778616,37.50162626899816
서울 구로구 고척동 100-7,CE7,카페,음식점 > 카페 > 커피전문점 > 스타벅스,,1385815016,1522-3232,스타벅스 고척아이파크점,http://place.map.kakao.com/1385815016,서울 구로구 경인로43길 49,126.858220892358,37.4993056293408
서울 구로구 신도림동 692,CE7,카페,음식점 > 카페 > 커피전문점 > 스타벅스,,17127067,1522-3232,스타벅스 현대디큐브B2점,http://place.map.kakao.com/17127067,서울 구로구 경인로 662,126.88921533965173,37.50906511114651
서울 양천구 신정동 324-7,CE7,카페,음식점 > 카페 > 커피전문점 > 스타벅스,,926070592,,스타벅스 목동10단지점,http://place.map.kakao.com/926070592,서울 양천구 목동서로 401,126.859608867626,37.5154091347214
서울 양천구 신정동 319-23,CE7,카페,음식점 > 카페 > 커피전문점 > 스타벅스,,1989650151,1522-3232,스타벅스 목동8단지점,http://place.map.kakao.com/1989650151,서울 양천구 목동서로 299,126.868843500708,37.5205194255446
서울 양천구 신정동 981-15,CE7,카페,음식점 > 카페 > 커피전문점 > 스타벅스,,1737262840,1522-3232,스타벅스 신정DT점,http://place.map.kakao.com/1737262840,서울 양천구 신월로 341,126.858858924977,37.5220179956817
서울 양천구 신정동 900-10,CE7,카페,음식점 > 카페 > 커피전문점 > 스타벅스,,758470503,,스타벅스 목동역점,http://place.map.kakao.com/758470503,서울 양천구 목동로 203,126.863999619945,37.5267849201481
서울 양천구 목동 406-4,CE7,카페,음식점 > 카페 > 커피전문점 > 스타벅스,,389160790,1522-3232,스타벅스 목동오목로점,http://place.map.kakao.com/389160790,서울 양천구 오목로 279,126.86843809046562,37.52592318438705
서울 양천구 목동 962,CE7,카페,음식점 > 카페 > 커피전문점 > 스타벅스,,788522441,1522-3232,스타벅스 목동트라팰리스점,http://place.map.kakao.com/788522441,서울 양천구 오목로 299,126.87041065029892,37.52550279549301
서울 양천구 목동 923,CE7,카페,음식점 > 카페 > 커피전문점 > 스타벅스,,26410047,1522-3232,스타벅스 목동7단지점,http://place.map.kakao.com/26410047,서울 양천구 목동서로 213,126.8705094492931,37.52790227069982
서울 양천구 목동 916,CE7,카페,음식점 > 카페 > 커피전문점 > 스타벅스,,7968573,1522-3232,스타벅스 현대목동점,http://place.map.kakao.com/7968573,서울 양천구 목동동로 257,126.87503554513982,37.52672683468832
서울 양천구 목동 917,CE7,카페,음식점 > 카페 > 커피전문점 > 스타벅스,,13049554,1522-3232,스타벅스 목동파라곤점,http://place.map.kakao.com/13049554,서울 양천구 목동서로 155,126.87478384228108,37.529088993496885
서울 강서구 화곡동 772-67,CE7,카페,음식점 > 카페 > 커피전문점 > 스타벅스,,470408699,,스타벅스 화곡DT점,http://place.map.kakao.com/470408699,서울 강서구 등촌로 57,126.86312483878,37.5349902242394
서울 강서구 화곡동 343-1,CE7,카페,음식점 > 카페 > 커피전문점 > 스타벅스,,20046342,1522-3232,스타벅스 까치산역점,http://place.map.kakao.com/20046342,서울 강서구 강서로13길 3,126.84610468757,37.5323095184562
서울 금천구 가산동 371-28,CE7,카페,음식점 > 카페 > 커피전문점 > 스타벅스,,8403565,1522-3232,스타벅스 가산디지털점,http://place.map.kakao.com/8403565,서울 금천구 가산디지털1로 168,126.8824803289091,37.48001465912096
서울 금천구 시흥동 904-22,CE7,카페,음식점 > 카페 > 커피전문점 > 스타벅스,,2090446816,,스타벅스 금천시흥점,http://place.map.kakao.com/2090446816,서울 금천구 시흥대로 164,126.903175211658,37.4489620586813
서울 금천구 가산동 50-3,CE7,카페,음식점 > 카페 > 커피전문점 > 스타벅스,,1460458769,1522-3232,스타벅스 가산디지털단지역점,http://place.map.kakao.com/1460458769,서울 금천구 벚꽃로 298,126.883591912152,37.4813375391088
서울 금천구 시흥동 1031,CE7,카페,음식점 > 카페 > 커피전문점 > 스타벅스,,62238907,1522-3232,스타벅스 금천구청역점,http://place.map.kakao.com/62238907,서울 금천구 시흥대로73길 67,126.89574736821737,37.455943996935765
서울 금천구 가산동 371-41,CE7,카페,음식점 > 카페 > 커피전문점 > 스타벅스,,1146328973,1522-3232,스타벅스 가산에스케이점,http://place.map.kakao.com/1146328973,서울 금천구 가산디지털1로 171,126.88095843414192,37.48079971611958
서울 금천구 가산동 60-5,CE7,카페,음식점 > 카페 > 커피전문점 > 스타벅스,,13049542,,스타벅스 가산그레이트점,http://place.map.kakao.com/13049542,서울 금천구 디지털로9길 32,126.887429804982,37.479438327682
서울 금천구 가산동 371-37,CE7,카페,음식점 > 카페 > 커피전문점 > 스타벅스,,26376546,1522-3232,스타벅스 가산브이타워점,http://place.map.kakao.com/26376546,서울 금천구 가산디지털1로 128,126.883576037768,37.4769946609385
서울 금천구 가산동 60-20,CE7,카페,음식점 > 카페 > 커피전문점 > 스타벅스,,18363987,1522-3232,스타벅스 마리오아울렛점,http://place.map.kakao.com/18363987,서울 금천구 벚꽃로 266,126.884839850386,37.4785600511513
서울 금천구 가산동 60-8,CE7,카페,음식점 > 카페 > 커피전문점 > 스타벅스,,1138402820,1522-3232,스타벅스 가산현대아울렛점,http://place.map.kakao.com/1138402820,서울 금천구 디지털로10길 9,126.8886659924985,37.47760594573009
서울 구로구 구로동 222-7,CE7,카페,음식점 > 카페 > 커피전문점 > 스타벅스,,1653669621,,스타벅스 구로디지털타워점,http://place.map.kakao.com/1653669621,서울 구로구 디지털로32길 30,126.896455138658,37.483630865471
서울 구로구 구로동 212-1,CE7,카페,음식점 > 카페 > 커피전문점 > 스타벅스,,7961406,,스타벅스 구로에이스점,http://place.map.kakao.com/7961406,서울 구로구 디지털로 285,126.894550272167,37.4842382622588
서울 구로구 구로동 191-7,CE7,카페,음식점 > 카페 > 커피전문점 > 스타벅스,,21058537,1522-3232,스타벅스 구로디지털로점,http://place.map.kakao.com/21058537,서울 구로구 디지털로33길 11,126.895800907536,37.4857746895213
서울 구로구 구로동 235-2,,,"교통,수송 > 교통시설 > 카셰어링 > 쏘카존",,499488604,,쏘카존 스타벅스 구로하이엔드점,http://place.map.kakao.com/499488604,서울 구로구 디지털로26길 5,126.89342231283902,37.48154233423662
서울 구로구 구로동 197-12,,,"교통,수송 > 교통시설 > 카셰어링 > 쏘카존",,703313564,,쏘카존 스타벅스 드림마크원점,http://place.map.kakao.com/703313564,서울 구로구 디지털로31길 61,126.891639834193,37.4858898794876
서울 영등포구 영등포동3가 2-21,CE7,카페,음식점 > 카페 > 커피전문점 > 스타벅스,,12402461,,스타벅스 영등포본동점,http://place.map.kakao.com/12402461,서울 영등포구 영등포로 254,126.909569110606,37.5186799384229
서울 영등포구 문래동3가 55-5,CE7,카페,음식점 > 카페 > 커피전문점 > 스타벅스,,26410044,1522-3232,스타벅스 문래역점,http://place.map.kakao.com/26410044,서울 영등포구 당산로 34,126.89511096977851,37.51746334288879
서울 영등포구 당산동6가 338-11,CE7,카페,음식점 > 카페 > 커피전문점 > 스타벅스,,23326001,1522-3232,스타벅스 당산점,http://place.map.kakao.com/23326001,서울 영등포구 양평로 64,126.899927591558,37.5351388692365
서울 영등포구 당산동3가 393,CE7,카페,음식점 > 카페 > 커피전문점 > 스타벅스,,465235237,1522-3232,스타벅스 영등포구청역점,http://place.map.kakao.com/465235237,서울 영등포구 국회대로 558,126.89612267411299,37.5277473760383
서울 영등포구 문래동3가 77-1,CE7,카페,음식점 > 카페 > 커피전문점 > 스타벅스,,12300206,1522-3232,스타벅스 문래동점,http://place.map.kakao.com/12300206,서울 영등포구 선유로 64,126.889631934317,37.5195639939151
서울 영등포구 양평동4가 98-5,CE7,카페,음식점 > 카페 > 커피전문점 > 스타벅스,,27544715,1522-3232,스타벅스 선유도역점,http://place.map.kakao.com/27544715,서울 영등포구 양평로 115,126.894593193315,37.5373542928833
서울 영등포구 양평동4가 2,CE7,카페,음식점 > 카페 > 커피전문점 > 스타벅스,,27535207,1522-3232,스타벅스 선유동이레빌딩점,http://place.map.kakao.com/27535207,서울 영등포구 선유동2로 57,126.8973062991907,37.5341518253866
서울 영등포구 영등포동6가 1-14,CE7,카페,음식점 > 카페 > 커피전문점 > 스타벅스,,458228521,1522-3232,스타벅스 영등포시장교차로점,http://place.map.kakao.com/458228521,서울 영등포구 영중로 45,126.904458442745,37.5204599005082
서울 영등포구 여의도동 17-3,CE7,카페,음식점 > 카페 > 커피전문점 > 스타벅스,,1964855917,1522-3232,스타벅스 국회의사당역,http://place.map.kakao.com/1964855917,서울 영등포구 의사당대로 8,126.916780179853,37.5280160192324
서울 영등포구 당산동5가 16-7,CE7,카페,음식점 > 카페 > 커피전문점 > 스타벅스,,207762326,1522-3232,스타벅스 당산역사거리점,http://place.map.kakao.com/207762326,서울 영등포구 양평로 47,126.901108098452,37.5339568500424
서울 영등포구 양평동1가 247,CE7,카페,음식점 > 카페 > 커피전문점 > 스타벅스,,1581405164,1522-3232,스타벅스 서울양평역점,http://place.map.kakao.com/1581405164,,126.88581779418107,37.523121129709985
서울 영등포구 여의도동 14,CE7,카페,음식점 > 카페 > 커피전문점 > 스타벅스,,1775461798,1522-3232,스타벅스 국회대로점,http://place.map.kakao.com/1775461798,서울 영등포구 국회대로 786,126.919547238416,37.5302596281825
서울 영등포구 당산동6가 217-2,CE7,카페,음식점 > 카페 > 커피전문점 > 스타벅스,,1302559707,1522-3232,스타벅스 당산대로점,http://place.map.kakao.com/1302559707,서울 영등포구 양평로 22,126.90398181313441,37.53312309287262
서울 영등포구 여의도동 13-19,CE7,카페,음식점 > 카페 > 커피전문점 > 스타벅스,,12562041,,스타벅스 여의도의사당점,http://place.map.kakao.com/12562041,서울 영등포구 국회대로74길 12,126.921036165805,37.5301957610022
서울 영등포구 영등포동7가 47-3,CE7,카페,음식점 > 카페 > 커피전문점 > 스타벅스,,1342896021,,스타벅스 영등포시장역점,http://place.map.kakao.com/1342896021,서울 영등포구 영중로 79,126.904908229239,37.523475017666
서울 영등포구 영등포동8가 35-1,CE7,카페,음식점 > 카페 > 커피전문점 > 스타벅스,,2034797842,1522-3232,스타벅스 영등포KT점,http://place.map.kakao.com/2034797842,서울 영등포구 영중로 119,126.90524796740061,37.526765749880724
서울 영등포구 문래동3가 55-20,CE7,카페,음식점 > 카페 > 커피전문점 > 스타벅스,,8440477,1522-3232,스타벅스 하이테크시티점,http://place.map.kakao.com/8440477,서울 영등포구 경인로 775,126.89987828423082,37.514467139148095
서울 영등포구 여의도동 15-15,CE7,카페,음식점 > 카페 > 커피전문점 > 스타벅스,,22547052,,스타벅스 여의도일신점,http://place.map.kakao.com/22547052,서울 영등포구 은행로 11,126.920025030438,37.5278020207247
서울 영등포구 양평동5가 64-1,CE7,카페,음식점 > 카페 > 커피전문점 > 스타벅스,,472535356,1522-3232,스타벅스 선유도역1번출구점,http://place.map.kakao.com/472535356,서울 영등포구 양평로 128,126.893664067025,37.5382904998421
서울 영등포구 여의도동 23-2,CE7,카페,음식점 > 카페 > 커피전문점 > 스타벅스,,238953844,1522-3232,스타벅스 여의도신한투자증권점,http://place.map.kakao.com/238953844,서울 영등포구 여의대로 70,126.924182161834,37.524896328526
서울 영등포구 신길동 424-3,CE7,카페,음식점 > 카페 > 커피전문점 > 스타벅스,,1993056337,1522-3232,스타벅스 신풍역점,http://place.map.kakao.com/1993056337,서울 영등포구 신풍로 23,126.90838568483211,37.50034629049825
서울 영등포구 영등포동4가 434-5,CE7,카페,음식점 > 카페 > 커피전문점 > 스타벅스,,19964152,1522-3232,스타벅스 신세계타임스퀘어B2점,http://place.map.kakao.com/19964152,서울 영등포구 영중로 9,126.90560511457045,37.517161349774184
서울 양천구 목동 404-13,CE7,카페,음식점 > 카페 > 커피전문점 > 스타벅스,,26909836,1522-3232,스타벅스 오목교역점,http://place.map.kakao.com/26909836,서울 양천구 오목로 354,126.87645325560366,37.52386584381144
서울 양천구 목동 908-34,CE7,카페,음식점 > 카페 > 커피전문점 > 스타벅스,,20494132,,스타벅스 목동5단지점,http://place.map.kakao.com/20494132,서울 양천구 목동동로 411,126.882116945559,37.5364090617693
서울 양천구 목동 917-6,CE7,카페,음식점 > 카페 > 커피전문점 > 스타벅스,,559404149,1522-3232,스타벅스 목동행복한점,http://place.map.kakao.com/559404149,서울 양천구 목동동로 309,126.87588081683808,37.52934243177625
서울 영등포구 여의도동 55-2,CE7,카페,음식점 > 카페 > 커피전문점 > 스타벅스,,2029288865,1522-3232,스타벅스 샛강역점,http://place.map.kakao.com/2029288865,서울 영등포구 여의대방로 376,126.931278962704,37.5183656988847
서울 영등포구 여의도동 43-4,CE7,카페,음식점 > 카페 > 커피전문점 > 스타벅스,,26489322,1522-3232,스타벅스 동여의도점,http://place.map.kakao.com/26489322,,126.931652436918,37.520640948106
서울 영등포구 여의도동 45-21,CE7,카페,음식점 > 카페 > 커피전문점 > 스타벅스,,26410058,1522-3232,스타벅스 여의도ABL타워점,http://place.map.kakao.com/26410058,서울 영등포구 의사당대로 147,126.92798555428037,37.51895209179433
서울 영등포구 여의도동 44-22,CE7,카페,음식점 > 카페 > 커피전문점 > 스타벅스,,13046702,,스타벅스 여의도호성점,http://place.map.kakao.com/13046702,서울 영등포구 여의대방로65길 24,126.929227272463,37.5204881513529
서울 용산구 한강로3가 40-999,CE7,카페,음식점 > 카페 > 커피전문점 > 스타벅스,,1529152481,1522-3232,스타벅스 용산아이파크몰점,http://place.map.kakao.com/1529152481,서울 용산구 한강대로23길 55,126.96435058321899,37.52890582156534
서울 용산구 용산동5가 24,CE7,카페,음식점 > 카페 > 커피전문점 > 스타벅스,,508176709,1522-3232,스타벅스 용산파크타워점,http://place.map.kakao.com/508176709,서울 용산구 서빙고로 67,126.97041762644638,37.5239168467083
서울 영등포구 여의도동 36,CE7,카페,음식점 > 카페 > 커피전문점 > 스타벅스,,21748251,1522-3232,스타벅스 롯데캐슬여의도점,http://place.map.kakao.com/21748251,서울 영등포구 의사당대로 127,126.92633046870385,37.52027194137043
서울 영등포구 여의도동 23-9,CE7,카페,음식점 > 카페 > 커피전문점 > 스타벅스,,8438452,,스타벅스 여의도점,http://place.map.kakao.com/8438452,서울 영등포구 국제금융로2길 28,126.924490684817,37.5240856242203
서울 영등포구 여의도동 34-11,CE7,카페,음식점 > 카페 > 커피전문점 > 스타벅스,,23162838,1522-3232,스타벅스 여의도한양증권점,http://place.map.kakao.com/23162838,서울 영등포구 국제금융로6길 7,126.929112222152,37.5225279523731
서울 영등포구 여의도동 35-4,CE7,카페,음식점 > 카페 > 커피전문점 > 스타벅스,,1945023864,1522-3232,스타벅스 여의도화재보험점,http://place.map.kakao.com/1945023864,서울 영등포구 국제금융로6길 38,126.925869076824,37.52127536975
서울 용산구 한강로3가 63-391,CE7,카페,음식점 > 카페 > 커피전문점 > 스타벅스,,608431004,1522-3232,스타벅스 용산해링턴스퀘어점,http://place.map.kakao.com/608431004,서울 용산구 서빙고로 17,126.96735080889654,37.52646587506673
서울 용산구 한강로3가 16-9,CE7,카페,음식점 > 카페 > 커피전문점 > 스타벅스,,1727621360,1522-3232,스타벅스 용산전자랜드점,http://place.map.kakao.com/1727621360,서울 용산구 청파로 74,126.96106885104214,37.53275296215995
서울 관악구 신림동 564-12,CE7,카페,음식점 > 카페 > 커피전문점 > 스타벅스,,784815881,,스타벅스 신림DT점,http://place.map.kakao.com/784815881,서울 관악구 남부순환로 1419,126.90842516192575,37.480980972238186
서울 관악구 남현동 1060-10,CE7,카페,음식점 > 카페 > 커피전문점 > 스타벅스,,23447734,1522-3232,스타벅스 사당점,http://place.map.kakao.com/23447734,서울 관악구 남부순환로 2082-25,126.980943666621,37.4761747005937
서울 관악구 봉천동 1657-3,CE7,카페,음식점 > 카페 > 커피전문점 > 스타벅스,,427369680,,스타벅스 낙성대DT점,http://place.map.kakao.com/427369680,서울 관악구 남부순환로 1948,126.965138754993,37.4761819067065
서울 관악구 봉천동 869-1,CE7,카페,음식점 > 카페 > 커피전문점 > 스타벅스,,17127069,1522-3232,스타벅스 서울대입구역점,http://place.map.kakao.com/17127069,서울 관악구 남부순환로 1812,126.951342964083,37.4811758306639
서울 관악구 신림동 1641-101,CE7,카페,음식점 > 카페 > 커피전문점 > 스타벅스,,19526058,1522-3232,스타벅스 신림타임스트림점,http://place.map.kakao.com/19526058,서울 관악구 신림로 330,126.930102913928,37.4839979456956
서울 관악구 신림동 1432-71,CE7,카페,음식점 > 카페 > 커피전문점 > 스타벅스,,7977701,1522-3232,스타벅스 신림점,http://place.map.kakao.com/7977701,서울 관악구 신림로 355-1,126.92922352724,37.4861165935404
서울 관악구 봉천동 1660-1,CE7,카페,음식점 > 카페 > 커피전문점 > 스타벅스,,1870541602,1522-3232,스타벅스 낙성대역점,http://place.map.kakao.com/1870541602,서울 관악구 남부순환로 1908,126.96113243610868,37.47777634476014
서울 관악구 봉천동 861-6,CE7,카페,음식점 > 카페 > 커피전문점 > 스타벅스,,1594953144,1522-3232,스타벅스 서울대역,http://place.map.kakao.com/1594953144,서울 관악구 남부순환로 1817,126.951962262615,37.4816085683419
서울 관악구 봉천동 927-5,CE7,카페,음식점 > 카페 > 커피전문점 > 스타벅스,,1343076754,1522-3232,스타벅스 봉천역,http://place.map.kakao.com/1343076754,서울 관악구 남부순환로 1730,126.94228157472476,37.48203672006856
서울 관악구 봉천동 729-21,CE7,카페,음식점 > 카페 > 커피전문점 > 스타벅스,,20494138,,스타벅스 보라매대교점,http://place.map.kakao.com/20494138,서울 관악구 보라매로3길 23,126.9254318446212,37.49115990420641
서울 관악구 봉천동 852-5,CE7,카페,음식점 > 카페 > 커피전문점 > 스타벅스,,643067406,1522-3232,스타벅스 서울대입구역8번출구점,http://place.map.kakao.com/643067406,서울 관악구 남부순환로 1831,126.95367315277564,37.4811812723318
서울 동작구 상도동 501-9,CE7,카페,음식점 > 카페 > 커피전문점 > 스타벅스,,10538394,1522-3232,스타벅스 숭실대점,http://place.map.kakao.com/10538394,서울 동작구 사당로 4,126.954861906699,37.4954167553415
서울 동작구 사당동 252-15,CE7,카페,음식점 > 카페 > 커피전문점 > 스타벅스,,901127235,,스타벅스 남성역점,http://place.map.kakao.com/901127235,서울 동작구 사당로 219,126.972660704042,37.4841596193623
서울 동작구 상도동 475-5,CE7,카페,음식점 > 카페 > 커피전문점 > 스타벅스,,27332485,1522-3232,스타벅스 숭실대입구역점,http://place.map.kakao.com/27332485,서울 동작구 상도로 354,126.952757658619,37.4968611472544
서울 동작구 사당동 1031-27,CE7,카페,음식점 > 카페 > 커피전문점 > 스타벅스,,12108448,1522-3232,스타벅스 사당역점,http://place.map.kakao.com/12108448,서울 동작구 동작대로 21,126.981386278469,37.4784272951076
서울 동작구 사당동 147-29,CE7,카페,음식점 > 카페 > 커피전문점 > 스타벅스,,553348297,1522-3232,스타벅스 이수자이점,http://place.map.kakao.com/553348297,서울 동작구 사당로 300,126.980288058487,37.4843890932479
서울 동작구 상도1동 666-5,CE7,카페,음식점 > 카페 > 커피전문점 > 스타벅스,,432578365,1522-3232,스타벅스 상도역점,http://place.map.kakao.com/432578365,서울 동작구 상도로37길 1,126.948458342683,37.5031934221037
서울 동작구 상도동 324-1,CE7,카페,음식점 > 카페 > 커피전문점 > 스타벅스,,525622050,1522-3232,스타벅스 신대방삼거리역점,http://place.map.kakao.com/525622050,서울 동작구 상도로 102,126.931883649842,37.5002351348546
서울 동작구 흑석동 205-5,CE7,카페,음식점 > 카페 > 커피전문점 > 스타벅스,,1746397370,,스타벅스 중앙대점,http://place.map.kakao.com/1746397370,서울 동작구 흑석로 75-1,126.958134851629,37.5069760639586
서울 동작구 노량진동 333,CE7,카페,음식점 > 카페 > 커피전문점 > 스타벅스,,1086947915,1522-3232,스타벅스 노량진동점,http://place.map.kakao.com/1086947915,서울 동작구 노량진로 190,126.94648794001702,37.51311711356294
서울 동작구 노량진동 62-8,CE7,카페,음식점 > 카페 > 커피전문점 > 스타벅스,,66183033,1522-3232,스타벅스 노량진역점,http://place.map.kakao.com/66183033,서울 동작구 노량진로 134,126.940875235694,37.5133910456679
서울 영등포구 신길동 252-9,CE7,카페,음식점 > 카페 > 커피전문점 > 스타벅스,,26316695,1522-3232,스타벅스 영등포신길점,http://place.map.kakao.com/26316695,서울 영등포구 신길로 137,126.91007921929604,37.50458141638527
서울 구로구 구로동 1128-1,CE7,카페,음식점 > 카페 > 커피전문점 > 스타벅스,,18691090,1522-3232,스타벅스 구로호텔점,http://place.map.kakao.com/18691090,서울 구로구 디지털로32길 72,126.898802839549,37.4832797043771
서울 금천구 독산동 159-23,CE7,카페,음식점 > 카페 > 커피전문점 > 스타벅스,,1616531669,1522-3232,스타벅스 독산사거리점,http://place.map.kakao.com/1616531669,서울 금천구 시흥대로 426,126.898606100317,37.4715700200452
서울 금천구 독산동 291-1,CE7,카페,음식점 > 카페 > 커피전문점 > 스타벅스,,24765611,1522-3232,스타벅스 금천독산점,http://place.map.kakao.com/24765611,서울 금천구 두산로 70,126.895651607106,37.4695491849933
서울 용산구 이촌동 302-60,CE7,카페,음식점 > 카페 > 커피전문점 > 스타벅스,,17884762,1522-3232,스타벅스 동부이촌동점,http://place.map.kakao.com/17884762,서울 용산구 이촌로 198,126.9690443188777,37.52108554442141
서울 용산구 이촌동 300-20,CE7,카페,음식점 > 카페 > 커피전문점 > 스타벅스,,1213146248,,스타벅스 이촌점,http://place.map.kakao.com/1213146248,서울 용산구 이촌로 276,126.977267855613,37.5186474971495
서울 용산구 한강로2가 332-4,CE7,카페,음식점 > 카페 > 커피전문점 > 스타벅스,,466802634,1522-3232,스타벅스 신용산역점,http://place.map.kakao.com/466802634,서울 용산구 한강대로 95,126.966652969927,37.5286244805807
서울 영등포구 영등포동1가 143-3,CE7,카페,음식점 > 카페 > 커피전문점 > 스타벅스,,337672656,1522-3232,스타벅스 영등포역점,http://place.map.kakao.com/337672656,서울 영등포구 경인로 870,126.90906665146082,37.51699377584985
서울 서초구 서초동 1318-8,CE7,카페,음식점 > 카페 > 커피전문점 > 스타벅스,,7961654,1522-3232,스타벅스 몬테소리점,http://place.map.kakao.com/7961654,서울 서초구 강남대로 399,127.026874023027,37.4983415831768
서울 서초구 반포동 19-4,CE7,카페,음식점 > 카페 > 커피전문점 > 스타벅스,,1896551518,1522-3232,스타벅스 서울고속터미널점,http://place.map.kakao.com/1896551518,서울 서초구 신반포로 194,127.005731718845,37.5044064686593
서울 서초구 양재동 14-4,CE7,카페,음식점 > 카페 > 커피전문점 > 스타벅스,,25985341,1522-3232,스타벅스 양재역점,http://place.map.kakao.com/25985341,서울 서초구 강남대로 202,127.036849465801,37.4822865420713
서울 서초구 잠원동 149-2,CE7,카페,음식점 > 카페 > 커피전문점 > 스타벅스,,1315931257,1522-3232,스타벅스 서울웨이브아트센터점,http://place.map.kakao.com/1315931257,서울 서초구 잠원로 145-35,127.00696014567234,37.518755797995745
서울 서초구 서초동 1307-28,CE7,카페,음식점 > 카페 > 커피전문점 > 스타벅스,,11306012,1522-3232,스타벅스 강남2점,http://place.map.kakao.com/11306012,서울 서초구 서초대로77길 27,127.02556397147855,37.50018416133991
서울 서초구 서초동 1327-5,CE7,카페,음식점 > 카페 > 커피전문점 > 스타벅스,,7977521,1522-3232,스타벅스 강남삼성타운점,http://place.map.kakao.com/7977521,서울 서초구 서초대로78길 24,127.027723416171,37.4955770987619
서울 서초구 방배동 3000-1,CE7,카페,음식점 > 카페 > 커피전문점 > 스타벅스,,25540409,1522-3232,스타벅스 이수역점,http://place.map.kakao.com/25540409,서울 서초구 동작대로 112,126.9826823141427,37.48648611485342
서울 서초구 서초동 1693-3,CE7,카페,음식점 > 카페 > 커피전문점 > 스타벅스,,24765604,1522-3232,스타벅스 교대역점,http://place.map.kakao.com/24765604,서울 서초구 서초중앙로 138,127.013863730466,37.4942820882977
서울 서초구 방배동 444-7,CE7,카페,음식점 > 카페 > 커피전문점 > 스타벅스,,27094956,1522-3232,스타벅스 사당로데오점,http://place.map.kakao.com/27094956,서울 서초구 방배천로 5-4,126.982164385401,37.4772741229633
서울 서초구 방배동 777-11,CE7,카페,음식점 > 카페 > 커피전문점 > 스타벅스,,27346318,1522-3232,스타벅스 방배카페거리점,http://place.map.kakao.com/27346318,서울 서초구 방배중앙로 162,126.986498266264,37.4935180762436
서울 서초구 서초동 1457-1,CE7,카페,음식점 > 카페 > 커피전문점 > 스타벅스,,7977525,,스타벅스 남부터미널2점,http://place.map.kakao.com/7977525,서울 서초구 효령로 274,127.014173956443,37.4843457379901
서울 서초구 반포동 748-1,CE7,카페,음식점 > 카페 > 커피전문점 > 스타벅스,,24529846,,스타벅스 신논현역점,http://place.map.kakao.com/24529846,서울 서초구 강남대로 483,127.023682679755,37.5054241717856
서울 서초구 서초동 1445-4,CE7,카페,음식점 > 카페 > 커피전문점 > 스타벅스,,7977526,,스타벅스 남부터미널점,http://place.map.kakao.com/7977526,서울 서초구 서초중앙로 26,127.017068576848,37.4849183966599
서울 서초구 반포동 92-1,CE7,카페,음식점 > 카페 > 커피전문점 > 스타벅스,,10537604,,스타벅스 서래마을입구점,http://place.map.kakao.com/10537604,서울 서초구 서래로 48,126.998502708835,37.4992276166114
서울 서초구 방배동 908-10,CE7,카페,음식점 > 카페 > 커피전문점 > 스타벅스,,10537571,1522-3232,스타벅스 방배역점,http://place.map.kakao.com/10537571,서울 서초구 방배로 84,126.997648302859,37.4819174453133
서울 서초구 서초동 1623-1,CE7,카페,음식점 > 카페 > 커피전문점 > 스타벅스,,12386819,,스타벅스 서울교대점,http://place.map.kakao.com/12386819,서울 서초구 서초중앙로 64,127.015169554611,37.4873982304025
서울 서초구 서초동 1464-22,CE7,카페,음식점 > 카페 > 커피전문점 > 스타벅스,,24167979,1522-3232,스타벅스 서울아트센터점,http://place.map.kakao.com/24167979,서울 서초구 남부순환로 2395,127.012364290801,37.4806482011285
서울 서초구 방배동 3001-2,CE7,카페,음식점 > 카페 > 커피전문점 > 스타벅스,,2098707270,1522-3232,스타벅스 이수역사거리점,http://place.map.kakao.com/2098707270,서울 서초구 서초대로 3-4,126.98290861129509,37.48578966844107
서울 서초구 서초동 1657-5,CE7,카페,음식점 > 카페 > 커피전문점 > 스타벅스,,8429829,1522-3232,스타벅스 교대점,http://place.map.kakao.com/8429829,서울 서초구 서초중앙로 118,127.01417772332432,37.49231244941736
서울 서초구 서초동 1329-7,CE7,카페,음식점 > 카페 > 커피전문점 > 스타벅스,,1662040802,,스타벅스 서초우성사거리점,http://place.map.kakao.com/1662040802,서울 서초구 강남대로 343,127.029310303418,37.4935368360249
서울 서초구 서초동 1303-16,CE7,카페,음식점 > 카페 > 커피전문점 > 스타벅스,,19469881,1522-3232,스타벅스 강남에비뉴점,http://place.map.kakao.com/19469881,서울 서초구 서초대로77길 62,127.024097956389,37.5025516822801
서울 서초구 잠원동 37-7,CE7,카페,음식점 > 카페 > 커피전문점 > 스타벅스,,26410041,,스타벅스 논현역점,http://place.map.kakao.com/26410041,서울 서초구 강남대로 557,127.020540209155,37.5114398681924
서울 서초구 서초동 1572-4,CE7,카페,음식점 > 카페 > 커피전문점 > 스타벅스,,1713883250,1522-3232,스타벅스 서초법원점,http://place.map.kakao.com/1713883250,서울 서초구 서초대로 274,127.01190380456472,37.4928190664977
서울 서초구 서초동 1542-14,CE7,카페,음식점 > 카페 > 커피전문점 > 스타벅스,,11115228,1522-3232,스타벅스 서초역점,http://place.map.kakao.com/11115228,서울 서초구 반포대로 118,127.008634444033,37.4906244966806
서울 서초구 서초동 1365-23,CE7,카페,음식점 > 카페 > 커피전문점 > 스타벅스,,1008945486,1522-3232,스타벅스 서초구청점,http://place.map.kakao.com/1008945486,서울 서초구 남부순환로 2557,127.03014231042431,37.48444545821113
서울 서초구 서초동 1317-23,CE7,카페,음식점 > 카페 > 커피전문점 > 스타벅스,,17884758,1522-3232,스타벅스 강남GT타워점,http://place.map.kakao.com/17884758,서울 서초구 서초대로 411,127.02615689173884,37.49788583490465
서울 서초구 양재동 215,CE7,카페,음식점 > 카페 > 커피전문점 > 스타벅스,,7962297,1522-3232,스타벅스 하이브랜드점,http://place.map.kakao.com/7962297,서울 서초구 매헌로 16,127.036686081344,37.4626085281858
서울 서초구 잠원동 21-7,CE7,카페,음식점 > 카페 > 커피전문점 > 스타벅스,,621924779,1522-3232,스타벅스 강남대로신사점,http://place.map.kakao.com/621924779,서울 서초구 강남대로 595,127.019577428193,37.5148458271957
서울 서초구 양재동 4-3,CE7,카페,음식점 > 카페 > 커피전문점 > 스타벅스,,7975002,1522-3232,스타벅스 영동2교점,http://place.map.kakao.com/7975002,서울 서초구 논현로 139,127.042624542151,37.4819746527692
서울 서초구 반포동 19-3,CE7,카페,음식점 > 카페 > 커피전문점 > 스타벅스,,1591066580,,스타벅스 센트럴F1점,http://place.map.kakao.com/1591066580,서울 서초구 신반포로 176,127.004392702328,37.5051453504648
서울 서초구 잠원동 58-24,CE7,카페,음식점 > 카페 > 커피전문점 > 스타벅스,,8403571,,스타벅스 반포역점,http://place.map.kakao.com/8403571,서울 서초구 신반포로 257,127.012079379276,37.5087380227118
서울 서초구 신원동 203-5,CE7,카페,음식점 > 카페 > 커피전문점 > 스타벅스,,27564873,1522-3232,스타벅스 청계산입구역,http://place.map.kakao.com/27564873,서울 서초구 청계산로 203,127.056057614837,37.4473197479687
서울 서초구 서초동 1538-10,CE7,카페,음식점 > 카페 > 커피전문점 > 스타벅스,,664336019,1522-3232,스타벅스 서초역이화빌딩점,http://place.map.kakao.com/664336019,서울 서초구 반포대로21길 3,127.00901862119902,37.48829986802433
서울 서초구 방배동 812-2,CE7,카페,음식점 > 카페 > 커피전문점 > 스타벅스,,27320715,1522-3232,스타벅스 방배점,http://place.map.kakao.com/27320715,서울 서초구 방배로 211,126.99065979565066,37.491984063237815
서울 서초구 서초동 1699-3,CE7,카페,음식점 > 카페 > 커피전문점 > 스타벅스,,13557037,1522-3232,스타벅스 교대법원점,http://place.map.kakao.com/13557037,서울 서초구 서초중앙로 164,127.013384638803,37.4963652713493
서울 서초구 방배동 851-1,CE7,카페,음식점 > 카페 > 커피전문점 > 스타벅스,,24167871,1522-3232,스타벅스 내방역점,http://place.map.kakao.com/24167871,서울 서초구 방배로 184,126.992487314219,37.4901308211763
서울 서초구 반포동 52-6,CE7,카페,음식점 > 카페 > 커피전문점 > 스타벅스,,23325997,1522-3232,스타벅스 서초중앙로점,http://place.map.kakao.com/23325997,서울 서초구 서초중앙로 225,127.01155347922,37.5015804889615
서울 서초구 서초동 1327-29,CE7,카페,음식점 > 카페 > 커피전문점 > 스타벅스,,23326017,1522-3232,스타벅스 서초파라곤점,http://place.map.kakao.com/23326017,서울 서초구 서초대로74길 29,127.027239254954,37.4951194999284
서울 서초구 잠원동 70-1,CE7,카페,음식점 > 카페 > 커피전문점 > 스타벅스,,10536360,,스타벅스 뉴코아강남점,http://place.map.kakao.com/10536360,서울 서초구 잠원로 69,127.007197993194,37.5101007401074
서울 서초구 서초동 1439-14,CE7,카페,음식점 > 카페 > 커피전문점 > 스타벅스,,17127097,,스타벅스 서초동점,http://place.map.kakao.com/17127097,서울 서초구 남부순환로339길 64,127.021564411134,37.4859448111295
서울 서초구 방배동 907-1,CE7,카페,음식점 > 카페 > 커피전문점 > 스타벅스,,393924742,,스타벅스 방배다이치빌딩점,http://place.map.kakao.com/393924742,서울 서초구 방배로 114,126.99607887070374,37.48433931505077
서울 강남구 청담동 6-5,CE7,카페,음식점 > 카페 > 커피전문점 > 스타벅스,,23522642,1522-3232,스타벅스 청담사거리점,http://place.map.kakao.com/23522642,서울 강남구 도산대로 458,127.046872393057,37.523735555011335
서울 강남구 논현동 1-4,CE7,카페,음식점 > 카페 > 커피전문점 > 스타벅스,,26395435,,스타벅스 신사역점,http://place.map.kakao.com/26395435,서울 강남구 도산대로 108,127.0207677490634,37.51622596162784
서울 강남구 대치동 889-70,CE7,카페,음식점 > 카페 > 커피전문점 > 스타벅스,,7961822,1522-3232,스타벅스 선릉세화빌딩점,http://place.map.kakao.com/7961822,서울 강남구 테헤란로64길 18,127.051223136165,37.5037864222678
서울 강남구 청담동 84-3,CE7,카페,음식점 > 카페 > 커피전문점 > 스타벅스,,13049428,1522-3232,스타벅스 압구정로데오역점,http://place.map.kakao.com/13049428,서울 강남구 선릉로 836,127.040541168059,37.5265751539424
서울 강남구 역삼동 708-6,CE7,카페,음식점 > 카페 > 커피전문점 > 스타벅스,,7961755,1522-3232,스타벅스 선릉역점,http://place.map.kakao.com/7961755,서울 강남구 테헤란로 334,127.04859034788,37.5038956552172
서울 강남구 역삼동 809-10,CE7,카페,음식점 > 카페 > 커피전문점 > 스타벅스,,20494135,1522-3232,스타벅스 강남대로점,http://place.map.kakao.com/20494135,서울 강남구 강남대로 456,127.025559367137,37.5032649716005
서울 강남구 청담동 52-1,CE7,카페,음식점 > 카페 > 커피전문점 > 스타벅스,,21580664,1522-3232,스타벅스 청담점,http://place.map.kakao.com/21580664,서울 강남구 도산대로 532,127.051585624477,37.5243543810765
서울 강남구 역삼동 826-26,CE7,카페,음식점 > 카페 > 커피전문점 > 스타벅스,,17884744,1522-3232,스타벅스 강남비젼타워점,http://place.map.kakao.com/17884744,서울 강남구 테헤란로2길 27,127.0296167853337,37.49649026006633
서울 강남구 신사동 609,CE7,카페,음식점 > 카페 > 커피전문점 > 스타벅스,,1624256715,,스타벅스 압구정,http://place.map.kakao.com/1624256715,서울 강남구 압구정로30길 17,127.029386438865,37.5262216594061
서울 강남구 개포4동 1229-1,CE7,카페,음식점 > 카페 > 커피전문점 > 스타벅스,,7975170,1522-3232,스타벅스 포이점,http://place.map.kakao.com/7975170,서울 강남구 논현로 88,127.045145597366,37.4778218663276
서울 강남구 논현동 241-7,CE7,카페,음식점 > 카페 > 커피전문점 > 스타벅스,,10534102,1522-3232,스타벅스 강남구청역점,http://place.map.kakao.com/10534102,서울 강남구 선릉로 669,127.041264296462,37.5167215373803
서울 강남구 역삼동 832-3,CE7,카페,음식점 > 카페 > 커피전문점 > 스타벅스,,1807668316,1522-3232,스타벅스 강남우성점,http://place.map.kakao.com/1807668316,서울 강남구 강남대로 328,127.03071652243,37.492329129164
서울 강남구 대치동 994-10,CE7,카페,음식점 > 카페 > 커피전문점 > 스타벅스,,7962298,1522-3232,스타벅스 학여울역점,http://place.map.kakao.com/7962298,서울 강남구 영동대로 215,127.068539522508,37.4979967909577
서울 강남구 역삼동 813-17,CE7,카페,음식점 > 카페 > 커피전문점 > 스타벅스,,113668696,1522-3232,스타벅스 강남오거리점,http://place.map.kakao.com/113668696,서울 강남구 봉은사로2길 39,127.026671808376,37.5021150424068
서울 강남구 신사동 533-11,CE7,카페,음식점 > 카페 > 커피전문점 > 스타벅스,,882114256,1522-3232,스타벅스 신사가로수점,http://place.map.kakao.com/882114256,서울 강남구 가로수길 59,127.02255665575399,37.52188663660905
서울 강남구 논현동 87-1,CE7,카페,음식점 > 카페 > 커피전문점 > 스타벅스,,7962109,1522-3232,스타벅스 학동역점,http://place.map.kakao.com/7962109,서울 강남구 논현로 704,127.030820635653,37.5145370872591
서울 강남구 역삼동 681,CE7,카페,음식점 > 카페 > 커피전문점 > 스타벅스,,806547574,,스타벅스 아크로힐스논현점,http://place.map.kakao.com/806547574,서울 강남구 봉은사로 304,127.040350697045,37.5090020498856
서울 강남구 삼성동 37-17,CE7,카페,음식점 > 카페 > 커피전문점 > 스타벅스,,27114008,1522-3232,스타벅스 선정릉역,http://place.map.kakao.com/27114008,서울 강남구 봉은사로 407,127.044581818702,37.5107881217703
서울 강남구 신사동 639-7,CE7,카페,음식점 > 카페 > 커피전문점 > 스타벅스,,13335864,,스타벅스 신압구정점,http://place.map.kakao.com/13335864,서울 강남구 언주로174길 29,127.036496399642,37.5281153843557
서울 강남구 삼성동 159,CE7,카페,음식점 > 카페 > 커피전문점 > 스타벅스,,23707172,1522-3232,스타벅스 코엑스몰점,http://place.map.kakao.com/23707172,서울 강남구 영동대로 513,127.05902063946782,37.513310007386
서울 강남구 역삼동 648-22,CE7,카페,음식점 > 카페 > 커피전문점 > 스타벅스,,1114343523,1522-3232,스타벅스 국기원사거리점,http://place.map.kakao.com/1114343523,서울 강남구 테헤란로 125,127.031678497624,37.4996054052968
서울 강남구 논현동 93-2,CE7,카페,음식점 > 카페 > 커피전문점 > 스타벅스,,27086658,1522-3232,스타벅스 학동사거리점,http://place.map.kakao.com/27086658,서울 강남구 도산대로 328,127.037973276535,37.5224133767416
서울 강남구 신사동 580-2,CE7,카페,음식점 > 카페 > 커피전문점 > 스타벅스,,7961953,1522-3232,스타벅스 압구정역점,http://place.map.kakao.com/7961953,서울 강남구 압구정로 170,127.028124118825,37.5267589639676
서울 강남구 신사동 529-10,CE7,카페,음식점 > 카페 > 커피전문점 > 스타벅스,,21748238,,스타벅스 가로수길점,http://place.map.kakao.com/21748238,서울 강남구 논현로175길 94,127.021661092512,37.5231599210152
서울 강남구 청담동 44-12,CE7,카페,음식점 > 카페 > 커피전문점 > 스타벅스,,656778644,,스타벅스 강남구청정문점,http://place.map.kakao.com/656778644,서울 강남구 학동로 419,127.045943657684,37.5182407036159
서울 강남구 논현동 5,CE7,카페,음식점 > 카페 > 커피전문점 > 스타벅스,,17127100,1522-3232,스타벅스 도산가로수길점,http://place.map.kakao.com/17127100,서울 강남구 도산대로 134,127.02337538106006,37.51735443178708
서울 강남구 논현동 142-2,CE7,카페,음식점 > 카페 > 커피전문점 > 스타벅스,,49095933,1522-3232,스타벅스 논현역사거리점,http://place.map.kakao.com/49095933,서울 강남구 강남대로 538,127.0221866558262,37.51012410390254
서울 강남구 대치동 1001-8,CE7,카페,음식점 > 카페 > 커피전문점 > 스타벅스,,19616330,,스타벅스 삼성교점,http://place.map.kakao.com/19616330,서울 강남구 영동대로86길 12,127.065200697954,37.5078160371362
서울 강남구 신사동 635-13,CE7,카페,음식점 > 카페 > 커피전문점 > 스타벅스,,11116099,1522-3232,스타벅스 압구정로점,http://place.map.kakao.com/11116099,서울 강남구 압구정로42길 32,127.03474450734,37.5268040539968
서울 강남구 대치동 1024,CE7,카페,음식점 > 카페 > 커피전문점 > 스타벅스,,22178753,1522-3232,스타벅스 한티역점,http://place.map.kakao.com/22178753,서울 강남구 도곡로 408,127.05517623123298,37.4966639916982
서울 강남구 삼성동 154-10,CE7,카페,음식점 > 카페 > 커피전문점 > 스타벅스,,20705151,,스타벅스 삼성도심공항점,http://place.map.kakao.com/20705151,서울 강남구 테헤란로87길 33,127.057877757208,37.5097660222399
서울 강남구 신사동 583-3,CE7,카페,음식점 > 카페 > 커피전문점 > 스타벅스,,12108453,1522-3232,스타벅스 압구정미소점,http://place.map.kakao.com/12108453,서울 강남구 논현로 841,127.02809251992616,37.52394874556268
서울 강남구 역삼동 736-1,CE7,카페,음식점 > 카페 > 커피전문점 > 스타벅스,,1507421877,1522-3232,스타벅스 아크플레이스점,http://place.map.kakao.com/1507421877,서울 강남구 테헤란로 142,127.03471837892963,37.49970996873063
서울 강남구 세곡동 551,CE7,카페,음식점 > 카페 > 커피전문점 > 스타벅스,,523837124,1522-3232,스타벅스 강남세곡점,http://place.map.kakao.com/523837124,서울 강남구 헌릉로569길 18,127.099927618834,37.4672752513511
서울 강남구 역삼동 788-10,CE7,카페,음식점 > 카페 > 커피전문점 > 스타벅스,,1959735400,1522-3232,스타벅스 도곡공원점,http://place.map.kakao.com/1959735400,서울 강남구 도곡로 205,127.041305413122,37.4928052373632
서울 강남구 논현동 238-5,CE7,카페,음식점 > 카페 > 커피전문점 > 스타벅스,,25540375,1522-3232,스타벅스 서울세관사거리점,http://place.map.kakao.com/25540375,서울 강남구 언주로 650,127.035716257384,37.5148600697534
서울 송파구 잠실동 181,CE7,카페,음식점 > 카페 > 커피전문점 > 스타벅스,,21580658,1522-3232,스타벅스 잠실새내역점,http://place.map.kakao.com/21580658,서울 송파구 올림픽로 96,127.08112937138624,37.511510200207084
서울 송파구 잠실동 175,CE7,카페,음식점 > 카페 > 커피전문점 > 스타벅스,,7961930,1522-3232,스타벅스 아시아선수촌점,http://place.map.kakao.com/7961930,서울 송파구 백제고분로 69,127.079042533793,37.510424102992
서울 송파구 문정동 338,CE7,카페,음식점 > 카페 > 커피전문점 > 스타벅스,,818071750,1522-3232,스타벅스 문정역점,http://place.map.kakao.com/818071750,서울 송파구 송파대로 167,127.12217150962718,37.485227679457736
서울 송파구 장지동 884,CE7,카페,음식점 > 카페 > 커피전문점 > 스타벅스,,1958432822,1522-3232,스타벅스 송파위례점,http://place.map.kakao.com/1958432822,서울 송파구 위례광장로 230,127.14315621037294,37.47840240600822
서울 송파구 문정동 618,CE7,카페,음식점 > 카페 > 커피전문점 > 스타벅스,,1418057566,1522-3232,스타벅스 문정하비오점,http://place.map.kakao.com/1418057566,서울 송파구 송파대로 111,127.12348683027838,37.48200430712779
서울 송파구 가락동 479,CE7,카페,음식점 > 카페 > 커피전문점 > 스타벅스,,753622826,1522-3232,스타벅스 송파헬리오시티점,http://place.map.kakao.com/753622826,서울 송파구 송파대로 345,127.10284636247134,37.49782774442161
서울 송파구 가락동 125-6,CE7,카페,음식점 > 카페 > 커피전문점 > 스타벅스,,26426474,,스타벅스 문정로데오점,http://place.map.kakao.com/26426474,서울 송파구 동남로 141,127.126397798994,37.4918402313312
서울 송파구 거여동 21-8,CE7,카페,음식점 > 카페 > 커피전문점 > 스타벅스,,1144061925,1522-3232,스타벅스 송파거여역점,http://place.map.kakao.com/1144061925,서울 송파구 오금로 493,127.14367941459719,37.49362249101977
서울 송파구 문정동 624,CE7,카페,음식점 > 카페 > 커피전문점 > 스타벅스,,27544714,1522-3232,스타벅스 송파아이파크점,http://place.map.kakao.com/27544714,서울 송파구 법원로 55,127.12231865119016,37.479773724196875
서울 송파구 문정동 150-26,CE7,카페,음식점 > 카페 > 커피전문점 > 스타벅스,,25540413,,스타벅스 올림픽훼미리점,http://place.map.kakao.com/25540413,서울 송파구 중대로 68,127.11654171034,37.4916629556457
서울 송파구 문정동 634,CE7,카페,음식점 > 카페 > 커피전문점 > 스타벅스,,1703847827,1522-3232,스타벅스 송파NC점,http://place.map.kakao.com/1703847827,서울 송파구 충민로 66,127.12579995951694,37.47788155448456
서울 송파구 문정동 628,CE7,카페,음식점 > 카페 > 커피전문점 > 스타벅스,,13584740,1522-3232,스타벅스 가든파이브,http://place.map.kakao.com/13584740,서울 송파구 충민로 10,127.11933142801702,37.47822434072747
서울 송파구 문정동 641-11,CE7,카페,음식점 > 카페 > 커피전문점 > 스타벅스,,698204608,1522-3232,스타벅스 문정법조타운 한양타워점,http://place.map.kakao.com/698204608,서울 송파구 법원로11길 12,127.11802069752163,37.48587521827716
서울 송파구 잠실동 196-8,CE7,카페,음식점 > 카페 > 커피전문점 > 스타벅스,,1528677396,1522-3232,스타벅스 잠실본동점,http://place.map.kakao.com/1528677396,서울 송파구 백제고분로 91,127.079497585044,37.5086380068078
서울 강남구 수서동 724,CE7,카페,음식점 > 카페 > 커피전문점 > 스타벅스,,1547831802,1522-3232,스타벅스 수서역사거리점,http://place.map.kakao.com/1547831802,서울 강남구 광평로 280,127.103106714252,37.487318173233
서울 강동구 천호동 453-14,CE7,카페,음식점 > 카페 > 커피전문점 > 스타벅스,,26925107,1522-3232,스타벅스 천호로데오점,http://place.map.kakao.com/26925107,서울 강동구 천호대로 1037,127.127222117243,37.5378085338338
서울 강동구 암사동 441-12,CE7,카페,음식점 > 카페 > 커피전문점 > 스타벅스,,1749096990,1522-3232,스타벅스 강동암사DT점,http://place.map.kakao.com/1749096990,서울 강동구 고덕로 43,127.1300185890668,37.55510465765727
서울 강동구 성내동 550,CE7,카페,음식점 > 카페 > 커피전문점 > 스타벅스,,1255094197,1522-3232,스타벅스 강동구청DT점,http://place.map.kakao.com/1255094197,서울 강동구 성내로 32,127.12383613307597,37.52921208375212
서울 강동구 성내동 62-4,CE7,카페,음식점 > 카페 > 커피전문점 > 스타벅스,,7961107,1522-3232,스타벅스 천호역점,http://place.map.kakao.com/7961107,서울 강동구 천호대로 1012,127.12440370268146,37.537849378522445
서울 강동구 성내동 441-2,CE7,카페,음식점 > 카페 > 커피전문점 > 스타벅스,,27538963,1522-3232,스타벅스 둔촌동점,http://place.map.kakao.com/27538963,서울 강동구 양재대로 1303,127.13393181130897,37.52267871630429
서울 강동구 천호동 447-17,CE7,카페,음식점 > 카페 > 커피전문점 > 스타벅스,,1124970786,1522-3232,스타벅스 강동역점,http://place.map.kakao.com/1124970786,서울 강동구 천호대로 1089,127.13298720047844,37.536045232577685
서울 강동구 길동 378-3,CE7,카페,음식점 > 카페 > 커피전문점 > 스타벅스,,25017323,1522-3232,스타벅스 길동역점,http://place.map.kakao.com/25017323,서울 강동구 양재대로 1487,127.140059161042,37.5387130260926
서울 강동구 강일동 723,CE7,카페,음식점 > 카페 > 커피전문점 > 스타벅스,,1170670329,1522-3232,스타벅스 강일역점,http://place.map.kakao.com/1170670329,서울 강동구 고덕로 429,127.173494887784,37.5574850727156
서울 강동구 천호동 455-4,CE7,카페,음식점 > 카페 > 커피전문점 > 스타벅스,,23619860,1522-3232,스타벅스 천호이마트점,http://place.map.kakao.com/23619860,서울 강동구 천호대로 1015-14,127.125205567629,37.5389964046784
서울 강동구 성내동 448-8,CE7,카페,음식점 > 카페 > 커피전문점 > 스타벅스,,465468670,1522-3232,스타벅스 올림픽공원북2문점,http://place.map.kakao.com/465468670,서울 강동구 강동대로 199,127.128702482923,37.5242189368
서울 강동구 상일동 501,CE7,카페,음식점 > 카페 > 커피전문점 > 스타벅스,,22105090,1522-3232,스타벅스 상일동점,http://place.map.kakao.com/22105090,서울 강동구 상일로10길 36,127.17425816597004,37.55088234543218
서울 강동구 명일동 312-28,CE7,카페,음식점 > 카페 > 커피전문점 > 스타벅스,,854928918,1522-3232,스타벅스 명일역점,http://place.map.kakao.com/854928918,서울 강동구 양재대로 1647,127.14386941952853,37.55255048408574
서울 강동구 길동 457-4,CE7,카페,음식점 > 카페 > 커피전문점 > 스타벅스,,55148532,1522-3232,스타벅스 천호대로길동점,http://place.map.kakao.com/55148532,서울 강동구 천호대로 1131,127.137232307261,37.5347807777286
서울 강동구 명일동 47-7,CE7,카페,음식점 > 카페 > 커피전문점 > 스타벅스,,24529821,1522-3232,스타벅스 명일이마트점,http://place.map.kakao.com/24529821,서울 강동구 동남로75길 5,127.156108635946,37.5541792565344
서울 강동구 명일동 353-2,CE7,카페,음식점 > 카페 > 커피전문점 > 스타벅스,,1935059169,1522-3232,스타벅스 굽은다리역점,http://place.map.kakao.com/1935059169,서울 강동구 양재대로 1568,127.14310091793,37.5454029005901
서울 강동구 천호동 431-4,CE7,카페,음식점 > 카페 > 커피전문점 > 스타벅스,,662649450,1522-3232,스타벅스 천호사거리,http://place.map.kakao.com/662649450,서울 강동구 올림픽로 651,127.123314975703,37.539755233683
서울 송파구 방이동 180-13,CE7,카페,음식점 > 카페 > 커피전문점 > 스타벅스,,27237555,1522-3232,스타벅스 올림픽평화의문점,http://place.map.kakao.com/27237555,서울 송파구 위례성대로 38,127.116244311936,37.5157308962275
서울 송파구 방이동 44-3,CE7,카페,음식점 > 카페 > 커피전문점 > 스타벅스,,1295971095,1522-3232,스타벅스 몽촌토성역점,http://place.map.kakao.com/1295971095,서울 송파구 위례성대로 6,127.113168177178,37.5168421174808
서울 송파구 방이동 181,CE7,카페,음식점 > 카페 > 커피전문점 > 스타벅스,,24765614,1522-3232,스타벅스 올림픽공원남문점,http://place.map.kakao.com/24765614,서울 송파구 위례성대로 102,127.1230747230628,37.513359743712
서울 송파구 방이동 89-12,CE7,카페,음식점 > 카페 > 커피전문점 > 스타벅스,,19469875,1522-3232,스타벅스 올림픽아파트점,http://place.map.kakao.com/19469875,서울 송파구 양재대로 1220,127.13328392140174,37.515220949763574
서울 송파구 송파동 59-9,CE7,카페,음식점 > 카페 > 커피전문점 > 스타벅스,,1130138697,1522-3232,스타벅스 송파나루역DT점,http://place.map.kakao.com/1130138697,서울 송파구 오금로 142,127.11030660805635,37.5108567548167
서울 송파구 신천동 29-1,CE7,카페,음식점 > 카페 > 커피전문점 > 스타벅스,,247951941,,스타벅스 송파KT점,http://place.map.kakao.com/247951941,서울 송파구 잠실로 209,127.106302590517,37.5139995233973
서울 송파구 신천동 11-4,CE7,카페,음식점 > 카페 > 커피전문점 > 스타벅스,,1040671049,,스타벅스 잠실푸르지오월드점,http://place.map.kakao.com/1040671049,서울 송파구 올림픽로35가길 9,127.10326105199225,37.517289081769015
서울 광진구 광장동 329-1,CE7,카페,음식점 > 카페 > 커피전문점 > 스타벅스,,21058555,1522-3232,스타벅스 광나루점,http://place.map.kakao.com/21058555,서울 광진구 아차산로 607,127.10606374126958,37.54742507420889
서울 송파구 신천동 7-19,CE7,카페,음식점 > 카페 > 커피전문점 > 스타벅스,,50787790,1522-3232,스타벅스 잠실시그마타워점,http://place.map.kakao.com/50787790,서울 송파구 올림픽로 289,127.10285238870503,37.514586428406616
서울 송파구 오금동 17-8,CE7,카페,음식점 > 카페 > 커피전문점 > 스타벅스,,22728318,1522-3232,스타벅스 방이역점,http://place.map.kakao.com/22728318,서울 송파구 마천로 53,127.126742542626,37.5084832360447
서울 송파구 방이동 226-10,CE7,카페,음식점 > 카페 > 커피전문점 > 스타벅스,,1710997869,1522-3232,스타벅스 송파방이DT점,http://place.map.kakao.com/1710997869,서울 송파구 오금로 241,127.120496209987,37.5065652274908
서울 송파구 신천동 7-17,CE7,카페,음식점 > 카페 > 커피전문점 > 스타벅스,,11246062,1522-3232,스타벅스 잠실역점,http://place.map.kakao.com/11246062,서울 송파구 송파대로 562,127.099168114076,37.5152671337231
서울 송파구 송파동 7-5,CE7,카페,음식점 > 카페 > 커피전문점 > 스타벅스,,22547048,1522-3232,스타벅스 석촌호수점,http://place.map.kakao.com/22547048,서울 송파구 석촌호수로 262,127.105340515353,37.5095241977995
서울 광진구 구의동 200-2,CE7,카페,음식점 > 카페 > 커피전문점 > 스타벅스,,1771058655,1522-3232,스타벅스 올림픽대교북단점,http://place.map.kakao.com/1771058655,서울 광진구 광나루로 608,127.095242048653,37.5411291074614
서울 광진구 광장동 582,CE7,카페,음식점 > 카페 > 커피전문점 > 스타벅스,,17884750,1522-3232,스타벅스 광장점,http://place.map.kakao.com/17884750,서울 광진구 아차산로 537-17,127.099593526045,37.5425779286543
서울 송파구 석촌동 286-9,CE7,카페,음식점 > 카페 > 커피전문점 > 스타벅스,,12569379,1522-3232,스타벅스 석촌역점,http://place.map.kakao.com/12569379,서울 송파구 백제고분로 358,127.106197301854,37.5043516638645
서울 송파구 송파동 96-7,CE7,카페,음식점 > 카페 > 커피전문점 > 스타벅스,,26900350,1522-3232,스타벅스 송파사거리점,http://place.map.kakao.com/26900350,서울 송파구 송파대로 386,127.110356178393,37.5022719358725
서울 송파구 잠실동 40,CE7,카페,음식점 > 카페 > 커피전문점 > 스타벅스,,10536879,,스타벅스 갤러리아팰리스점,http://place.map.kakao.com/10536879,서울 송파구 올림픽로 212,127.0935609820093,37.511530740657655
서울 송파구 삼전동 130-2,CE7,카페,음식점 > 카페 > 커피전문점 > 스타벅스,,26632267,1522-3232,스타벅스 석촌서호점,http://place.map.kakao.com/26632267,서울 송파구 석촌호수로 176,127.096537093223,37.5064683050376
서울 광진구 구의동 67-36,CE7,카페,음식점 > 카페 > 커피전문점 > 스타벅스,,26639935,1522-3232,스타벅스 구의DT,http://place.map.kakao.com/26639935,서울 광진구 광나루로 519,127.08720408308,37.5452979333106
서울 광진구 구의동 246-15,CE7,카페,음식점 > 카페 > 커피전문점 > 스타벅스,,17884751,1522-3232,스타벅스 구의역,http://place.map.kakao.com/17884751,서울 광진구 아차산로 373,127.084048976208,37.5370002130577
서울 광진구 구의동 75-19,CE7,카페,음식점 > 카페 > 커피전문점 > 스타벅스,,1108578514,1522-3232,스타벅스 아차산역,http://place.map.kakao.com/1108578514,서울 광진구 천호대로 676,127.089930758669,37.5505901554071
서울 광진구 자양동 779,CE7,카페,음식점 > 카페 > 커피전문점 > 스타벅스,,26459319,1522-3232,스타벅스 자양사거리점,http://place.map.kakao.com/26459319,서울 광진구 아차산로 355,127.08242098114437,37.537152728551604
서울 송파구 가락동 174-14,CE7,카페,음식점 > 카페 > 커피전문점 > 스타벅스,,96855067,,스타벅스 송파개롱역점,http://place.map.kakao.com/96855067,서울 송파구 오금로 420,127.136217903794,37.4970839856032
서울 송파구 가락동 97-7,CE7,카페,음식점 > 카페 > 커피전문점 > 스타벅스,,17884761,1522-3232,스타벅스 가락본동점,http://place.map.kakao.com/17884761,서울 송파구 송파대로30길 13,127.118812839145,37.4948610690639
서울 송파구 가락동 79,CE7,카페,음식점 > 카페 > 커피전문점 > 스타벅스,,17127117,1522-3232,스타벅스 가락시장역점,http://place.map.kakao.com/17127117,서울 송파구 중대로 121,127.121639143162,37.4944040855798
서울 송파구 마천동 43-1,CE7,카페,음식점 > 카페 > 커피전문점 > 스타벅스,,6388793,1522-3232,스타벅스 송파마천사거리DT점,http://place.map.kakao.com/6388793,서울 송파구 거마로 78,127.147649199885,37.4997119999231
서울 종로구 종로2가 6,CE7,카페,음식점 > 카페 > 커피전문점 > 스타벅스,,1784996243,1522-3232,스타벅스 종로R점,http://place.map.kakao.com/1784996243,서울 종로구 종로 51,126.98343141859559,37.57078754872737
서울 종로구 적선동 156,CE7,카페,음식점 > 카페 > 커피전문점 > 스타벅스,,1626917734,1522-3232,스타벅스 정부서울청사R점,http://place.map.kakao.com/1626917734,서울 종로구 새문안로5가길 28,126.973678184351,37.5746240156408
서울 중구 을지로2가 6,CE7,카페,음식점 > 카페 > 커피전문점 > 스타벅스,,2084275814,1522-3232,스타벅스 을지로내외빌딩R점,http://place.map.kakao.com/2084275814,서울 중구 을지로 51,126.983515045748,37.5662789782839
서울 중구 남대문로4가 45,CE7,카페,음식점 > 카페 > 커피전문점 > 스타벅스,,1358426450,,스타벅스 대한상공회의소R점,http://place.map.kakao.com/1358426450,서울 중구 세종대로 39,126.973702240748,37.5609378958064
서울 중구 회현동1가 210,CE7,카페,음식점 > 카페 > 커피전문점 > 스타벅스,,474005666,1522-3232,스타벅스 레스케이프호텔R점,http://place.map.kakao.com/474005666,서울 중구 퇴계로 67,126.97949404876192,37.559834421626306
서울 서대문구 대현동 54-4,CE7,카페,음식점 > 카페 > 커피전문점 > 스타벅스,,725420477,1522-3232,스타벅스 이대R점,http://place.map.kakao.com/725420477,서울 서대문구 이화여대길 34,126.94594623384,37.5584543135108
서울 용산구 한남동 683-139,CE7,카페,음식점 > 카페 > 커피전문점 > 스타벅스,,267148550,1522-3232,스타벅스 한강진역R점,http://place.map.kakao.com/267148550,서울 용산구 이태원로 252,127.00109423240991,37.53717328670116
서울 용산구 한남동 36-7,CE7,카페,음식점 > 카페 > 커피전문점 > 스타벅스,,1664906329,1522-3232,스타벅스 한남동R,http://place.map.kakao.com/1664906329,서울 용산구 독서당로 94,127.010961214987,37.5348239645597
서울 용산구 한강로2가 410-1,CE7,카페,음식점 > 카페 > 커피전문점 > 스타벅스,,255305228,1522-3232,스타벅스 용산역써밋R점,http://place.map.kakao.com/255305228,서울 용산구 한강대로 69,126.965336804549,37.5271104185562
서울 강남구 청담동 89-4,CE7,카페,음식점 > 카페 > 커피전문점 > 스타벅스,,382182207,1522-3232,스타벅스 청담스타R점,http://place.map.kakao.com/382182207,서울 강남구 도산대로57길 24,127.041816506596,37.5252051860766
서울 서초구 반포동 118-3,CE7,카페,음식점 > 카페 > 커피전문점 > 스타벅스,,25502514,,스타벅스 파미에파크R점,http://place.map.kakao.com/25502514,서울 서초구 사평대로 205,127.004455913484,37.5030694314321
서울 강남구 신사동 621-1,CE7,카페,음식점 > 카페 > 커피전문점 > 스타벅스,,788025983,1522-3232,스타벅스 압구정R점,http://place.map.kakao.com/788025983,서울 강남구 언주로 861,127.03316999631811,37.52739015796435
서울 마포구 서교동 353-5,CE7,카페,음식점 > 카페 > 커피전문점 > 스타벅스,,1436512690,1522-3232,스타벅스 홍대입구역사거리R점,http://place.map.kakao.com/1436512690,서울 마포구 양화로 125,126.920317785646,37.5546231745866
서울 서초구 반포동 736-2,CE7,카페,음식점 > 카페 > 커피전문점 > 스타벅스,,1247094030,1522-3232,스타벅스 강남대로논현R점,http://place.map.kakao.com/1247094030,서울 서초구 강남대로85길 5,127.022697082384,37.5074570328279
서울 서초구 서초동 1303-22,CE7,카페,음식점 > 카페 > 커피전문점 > 스타벅스,,1052083352,1522-3232,스타벅스 강남교보타워R점,http://place.map.kakao.com/1052083352,서울 서초구 강남대로 465,127.02438897556831,37.50368598864027
서울 영등포구 여의도동 12,CE7,카페,음식점 > 카페 > 커피전문점 > 스타벅스,,1935154986,1522-3232,스타벅스 여의도공원R점,http://place.map.kakao.com/1935154986,서울 영등포구 여의공원로 101,126.924766318386,37.5289836462614
서울 강남구 역삼동 825,CE7,카페,음식점 > 카페 > 커피전문점 > 스타벅스,,35026031,1522-3232,스타벅스 강남R점,http://place.map.kakao.com/35026031,서울 강남구 강남대로 390,127.028443419181,37.4976744709989
서울 마포구 서교동 490,CE7,카페,음식점 > 카페 > 커피전문점 > 스타벅스,,288597324,1522-3232,스타벅스 합정폴리스R점,http://place.map.kakao.com/288597324,서울 마포구 양화로 45,126.91340049045,37.5508989849269
서울 영등포구 여의도동 23,CE7,카페,음식점 > 카페 > 커피전문점 > 스타벅스,,1778411786,,스타벅스 여의도IFC몰(L1)R점,http://place.map.kakao.com/1778411786,서울 영등포구 국제금융로 10,126.92560444354515,37.52576039296338
서울 강남구 삼성동 141-28,CE7,카페,음식점 > 카페 > 커피전문점 > 스타벅스,,1511852889,1522-3232,스타벅스 선릉동신빌딩R점,http://place.map.kakao.com/1511852889,서울 강남구 테헤란로 409,127.050409882375,37.5053220852093
서울 영등포구 여의도동 22,CE7,카페,음식점 > 카페 > 커피전문점 > 스타벅스,,1707585349,1522-3232,스타벅스 더현대서울(B2)R점,http://place.map.kakao.com/1707585349,서울 영등포구 여의대로 108,126.92829889484196,37.526041370109056
서울 영등포구 여의도동 23-6,CE7,카페,음식점 > 카페 > 커피전문점 > 스타벅스,,27465313,1522-3232,스타벅스 여의도역R점,http://place.map.kakao.com/27465313,서울 영등포구 의사당대로 83,126.923582027731,37.523227285602
서울 강남구 역삼동 676,CE7,카페,음식점 > 카페 > 커피전문점 > 스타벅스,,486472408,1522-3232,스타벅스 센터필드R,http://place.map.kakao.com/486472408,서울 강남구 테헤란로 231,127.04166760528298,37.503593760076306
서울 영등포구 여의도동 17-9,CE7,카페,음식점 > 카페 > 커피전문점 > 스타벅스,,1066439025,,스타벅스 여의도KBS R점,http://place.map.kakao.com/1066439025,서울 영등포구 의사당대로 26,126.91815744129866,37.52657177493214
서울 강남구 삼성동 159-9,CE7,카페,음식점 > 카페 > 커피전문점 > 스타벅스,,1997478625,1522-3232,스타벅스 스타필드코엑스몰 R점,http://place.map.kakao.com/1997478625,,127.06163058645485,37.50979926297963
서울 강남구 도곡동 956,CE7,카페,음식점 > 카페 > 커피전문점 > 스타벅스,,1729329393,1522-3232,스타벅스 양재강남빌딩R점,http://place.map.kakao.com/1729329393,서울 강남구 남부순환로 2621,127.03646645149259,37.48516628428305
서울 관악구 봉천동 856-6,CE7,카페,음식점 > 카페 > 커피전문점 > 스타벅스,,2074224653,1522-3232,스타벅스 관악서울대입구R점,http://place.map.kakao.com/2074224653,서울 관악구 관악로 158,126.952809411366,37.4793095346793
서울 강남구 대치동 944-31,CE7,카페,음식점 > 카페 > 커피전문점 > 스타벅스,,2002518777,1522-3232,스타벅스 삼성역섬유센터R점,http://place.map.kakao.com/2002518777,서울 강남구 테헤란로 518,127.06050441304848,37.507425697870396
서울 동작구 신대방동 395-65,CE7,카페,음식점 > 카페 > 커피전문점 > 스타벅스,,755423338,1522-3232,스타벅스 보라매공원R점,http://place.map.kakao.com/755423338,서울 동작구 보라매로5길 35,126.923509731908,37.4920885148138
서울 강남구 도곡동 467-17,CE7,카페,음식점 > 카페 > 커피전문점 > 스타벅스,,7974997,1522-3232,스타벅스 SSG마켓도곡R점,http://place.map.kakao.com/7974997,서울 강남구 언주로30길 57,127.05500510908067,37.48999932244668
서울 강남구 대치동 599,CE7,카페,음식점 > 카페 > 커피전문점 > 스타벅스,,57410644,1522-3232,스타벅스 대치재경빌딩R점,http://place.map.kakao.com/57410644,서울 강남구 남부순환로 2947,127.06264366785457,37.49450956508563
서울 영등포구 영등포동4가 442,CE7,카페,음식점 > 카페 > 커피전문점 > 스타벅스,,948537095,1522-3232,스타벅스 타임스퀘어R점,http://place.map.kakao.com/948537095,서울 영등포구 영중로 15,126.905061338993,37.51780963619845
서울 송파구 신천동 7-30,CE7,카페,음식점 > 카페 > 커피전문점 > 스타벅스,,2014186001,,스타벅스 잠실대교남단R점,http://place.map.kakao.com/2014186001,서울 송파구 송파대로 570,127.099059973879,37.5156060017498
서울 강남구 수서동 715,CE7,카페,음식점 > 카페 > 커피전문점 > 스타벅스,,2140311573,1522-3232,스타벅스 수서역R점,http://place.map.kakao.com/2140311573,서울 강남구 광평로 281,127.10297988971773,37.48800665367514
서울 송파구 문정동 202-1,CE7,카페,음식점 > 카페 > 커피전문점 > 스타벅스,,1104587783,1522-3232,스타벅스 문정법원로R,http://place.map.kakao.com/1104587783,서울 송파구 송파대로 201,127.11913113116584,37.487364370494596
서울 강서구 마곡동 727-500,CE7,카페,음식점 > 카페 > 커피전문점 > 스타벅스,,76277836,1522-3232,스타벅스 마곡사이언스타워R,http://place.map.kakao.com/76277836,서울 강서구 마곡동로 62,126.83384561061793,37.56059595846078
